{"type":"FeatureCollection", "features": [
{"type":"Feature","geometry":{"type":"MultiPolygon","coordinates":[[[[9.7303,53.558],[9.7163,53.5585],[9.7301,53.5576],[9.7303,53.558]]],[[[8.5182,54.5788],[8.548,54.557],[8.5592,54.5775],[8.5182,54.5788]]],[[[8.3833,54.6396],[8.362,54.6491],[8.3497,54.6757],[8.327,54.693],[8.305,54.6676],[8.3546,54.6241],[8.3904,54.6243],[8.3833,54.6396]]],[[[8.7068,54.5487],[8.6925,54.5551],[8.6417,54.5456],[8.6321,54.5374],[8.5885,54.5299],[8.5922,54.5087],[8.6289,54.4888],[8.6791,54.5],[8.7058,54.5372],[8.7068,54.5487]]],[[[8.5633,54.7524],[8.5373,54.7559],[8.4273,54.7462],[8.411,54.7371],[8.3965,54.7042],[8.4849,54.6803],[8.5665,54.68],[8.5857,54.7139],[8.5887,54.741],[8.5633,54.7524]]],[[[11.0862,54.5306],[11.0607,54.5333],[11.0312,54.5118],[11.0103,54.4826],[11.0044,54.4508],[11.0213,54.4389],[11.0632,54.4528],[11.097,54.4433],[11.0951,54.4095],[11.1215,54.4021],[11.1667,54.4013],[11.1661,54.4128],[11.255,54.4113],[11.3129,54.4028],[11.2981,54.4308],[11.2535,54.4711],[11.2411,54.4952],[11.1655,54.5225],[11.0862,54.5306]]],[[[10.9037,53.9568],[10.8821,53.9676],[10.8768,53.9874],[10.8558,53.9941],[10.7996,53.9926],[10.7727,54.0094],[10.7518,54.0371],[10.7571,54.0566],[10.8239,54.089],[10.8659,54.0848],[10.8911,54.0944],[10.9551,54.1411],[11.0512,54.1787],[11.0938,54.1991],[11.0819,54.2518],[11.0838,54.2793],[11.0719,54.3422],[11.0817,54.3531],[11.1256,54.3736],[11.1107,54.3957],[11.0787,54.3798],[11.0282,54.3681],[10.9975,54.3797],[10.9518,54.3845],[10.8728,54.3588],[10.8292,54.33],[10.7872,54.3113],[10.7129,54.305],[10.6841,54.3106],[10.6393,54.3475],[10.5957,54.3647],[10.5418,54.3794],[10.4712,54.3933],[10.388,54.4264],[10.3398,54.4348],[10.3021,54.4332],[10.2898,54.4195],[10.2341,54.4157],[10.218,54.4059],[10.196,54.366],[10.1782,54.3611],[10.1751,54.3388],[10.1414,54.3539],[10.1483,54.3675],[10.1896,54.3896],[10.1928,54.4032],[10.1718,54.4269],[10.1939,54.4558],[10.135,54.484],[10.1122,54.4846],[10.011,54.4737],[9.9323,54.4609],[9.9137,54.4524],[9.8661,54.4481],[9.8438,54.4612],[9.8429,54.4765],[9.8798,54.4759],[9.9613,54.5013],[9.9959,54.5197],[10.0269,54.5509],[10.0268,54.6035],[10.0336,54.6207],[10.0325,54.6603],[9.9769,54.6738],[9.9488,54.6744],[9.9367,54.6505],[9.939,54.6257],[9.8779,54.5986],[9.8208,54.5814],[9.8025,54.5666],[9.7456,54.5433],[9.7429,54.5306],[9.7008,54.5144],[9.713,54.4988],[9.6974,54.4901],[9.664,54.5072],[9.6315,54.5117],[9.5843,54.5025],[9.6052,54.5268],[9.64,54.5216],[9.7349,54.5323],[9.754,54.5583],[9.819,54.5837],[9.8333,54.5972],[9.8767,54.6096],[9.8964,54.6248],[9.9284,54.6273],[9.9445,54.6763],[9.9727,54.69],[10.0133,54.6923],[9.983,54.7288],[9.9769,54.7568],[9.9572,54.7799],[9.9061,54.7973],[9.8998,54.7732],[9.8737,54.7522],[9.8362,54.7588],[9.7909,54.798],[9.7102,54.8089],[9.6229,54.8319],[9.5901,54.8449],[9.6108,54.8757],[9.5892,54.8764],[9.5719,54.8571],[9.5167,54.8389],[9.4991,54.8233],[9.4673,54.8236],[9.4527,54.8075],[9.4273,54.8163],[9.4111,54.8423],[9.3827,54.8392],[9.3725,54.8222],[9.3421,54.8036],[9.2699,54.8122],[9.2501,54.8097],[9.2358,54.8311],[9.2401,54.85],[9.1551,54.8707],[9.1102,54.8739],[9.0482,54.8719],[9.0148,54.8864],[8.9479,54.9026],[8.892,54.9049],[8.8487,54.8973],[8.837,54.9055],[8.799,54.9046],[8.7763,54.8955],[8.728,54.8927],[8.6869,54.9088],[8.638,54.9113],[8.6292,54.8917],[8.6005,54.8872],[8.5097,54.8839],[8.4865,54.8767],[8.4349,54.8764],[8.3806,54.892],[8.3621,54.9102],[8.3602,54.9579],[8.3531,54.9672],[8.3711,54.9901],[8.3984,55.0049],[8.439,55.0154],[8.4243,55.0337],[8.3819,55.0357],[8.2979,54.9107],[8.2878,54.8767],[8.2786,54.7522],[8.3018,54.773],[8.292,54.786],[8.3005,54.818],[8.2935,54.8257],[8.3023,54.8548],[8.3332,54.8728],[8.3643,54.8759],[8.3757,54.8601],[8.4115,54.8473],[8.4612,54.8612],[8.5139,54.8819],[8.6034,54.8857],[8.6127,54.8779],[8.6072,54.8432],[8.644,54.8193],[8.6591,54.7954],[8.6774,54.7931],[8.7195,54.7257],[8.7411,54.7164],[8.7562,54.6791],[8.8278,54.6498],[8.8461,54.6259],[8.8869,54.6079],[8.893,54.5968],[8.8686,54.5618],[8.8771,54.5385],[8.848,54.5134],[8.8126,54.5036],[8.8191,54.4861],[8.8074,54.4699],[8.8418,54.4606],[8.8946,54.4595],[8.9208,54.4701],[8.9455,54.5124],[8.9829,54.524],[9.0125,54.4844],[8.9993,54.4653],[8.9636,54.4555],[8.9114,54.4177],[8.8527,54.403],[8.8092,54.4107],[8.7405,54.3999],[8.6728,54.4005],[8.6464,54.3925],[8.664,54.3695],[8.6925,54.3569],[8.6342,54.3373],[8.6027,54.3416],[8.6032,54.3133],[8.6381,54.2897],[8.6823,54.269],[8.7103,54.2895],[8.7384,54.2938],[8.7917,54.2818],[8.8201,54.291],[8.836,54.2852],[8.8439,54.2566],[8.8388,54.2181],[8.811,54.1894],[8.8271,54.1436],[8.8382,54.1324],[8.8733,54.1257],[8.9094,54.1351],[8.9295,54.1287],[8.9486,54.0942],[8.9851,54.061],[8.9774,54.0412],[8.9262,54.0288],[8.8818,54.043],[8.8444,54.038],[8.8469,54.0216],[8.9176,53.9258],[8.9775,53.8912],[9.0417,53.8991],[9.0931,53.8883],[9.2195,53.8886],[9.3012,53.8697],[9.334,53.8559],[9.3544,53.8387],[9.3794,53.8306],[9.4,53.8112],[9.4282,53.7531],[9.4591,53.7312],[9.5211,53.7125],[9.5524,53.6699],[9.5512,53.6519],[9.5662,53.6317],[9.5555,53.6207],[9.6146,53.596],[9.6504,53.5863],[9.6736,53.5717],[9.7344,53.5652],[9.7556,53.6025],[9.7867,53.6116],[9.8162,53.5862],[9.8367,53.5875],[9.9047,53.6418],[9.9148,53.6549],[9.9655,53.6488],[9.9905,53.6509],[9.9987,53.6815],[10.0693,53.6795],[10.0679,53.6949],[10.0818,53.7204],[10.1172,53.7152],[10.1714,53.7374],[10.1902,53.7208],[10.1575,53.705],[10.1448,53.6798],[10.1954,53.655],[10.1897,53.6384],[10.2218,53.6337],[10.189,53.613],[10.1958,53.5847],[10.1526,53.5779],[10.1605,53.5577],[10.1512,53.545],[10.1646,53.5199],[10.1866,53.5128],[10.2106,53.52],[10.2186,53.4991],[10.2693,53.4641],[10.299,53.4505],[10.308,53.4332],[10.3289,53.4253],[10.3759,53.4247],[10.4435,53.393],[10.5022,53.3735],[10.595,53.3639],[10.615,53.383],[10.6177,53.4165],[10.6349,53.456],[10.652,53.4615],[10.693,53.4551],[10.7017,53.4783],[10.7207,53.4761],[10.7778,53.4952],[10.7864,53.5105],[10.8108,53.5162],[10.8315,53.5422],[10.8269,53.5762],[10.8626,53.5646],[10.9111,53.5726],[10.9296,53.6287],[10.9547,53.6586],[10.9386,53.6658],[10.9418,53.6845],[10.9232,53.6983],[10.8864,53.7057],[10.8529,53.7019],[10.824,53.7113],[10.8042,53.74],[10.7719,53.7494],[10.7583,53.7643],[10.7723,53.7972],[10.748,53.834],[10.7477,53.8515],[10.7728,53.8741],[10.8024,53.8771],[10.8195,53.8936],[10.8747,53.9145],[10.9118,53.9142],[10.9135,53.8977],[10.9488,53.9039],[10.9393,53.9193],[10.8945,53.9254],[10.9095,53.9463],[10.9037,53.9568]]]]},"properties":{"ags":"01","gen":"Schleswig-Holstein","bez":"Land"}},
{"type":"Feature","geometry":{"type":"MultiPolygon","coordinates":[[[[9.732,53.5575],[9.7303,53.558],[9.7301,53.5576],[9.732,53.5575]]],[[[9.7736,53.5501],[9.779,53.5546],[9.7403,53.5569],[9.7742,53.5536],[9.7737,53.5509],[9.7736,53.5501]]],[[[10.308,53.4332],[10.299,53.4505],[10.2693,53.4641],[10.2186,53.4991],[10.2106,53.52],[10.1866,53.5128],[10.1646,53.5199],[10.1512,53.545],[10.1605,53.5577],[10.1526,53.5779],[10.1958,53.5847],[10.189,53.613],[10.2218,53.6337],[10.1897,53.6384],[10.1954,53.655],[10.1448,53.6798],[10.1575,53.705],[10.1902,53.7208],[10.1714,53.7374],[10.1172,53.7152],[10.0818,53.7204],[10.0679,53.6949],[10.0693,53.6795],[9.9987,53.6815],[9.9905,53.6509],[9.9655,53.6488],[9.9148,53.6549],[9.9047,53.6418],[9.8367,53.5875],[9.8162,53.5862],[9.7867,53.6116],[9.7556,53.6025],[9.7344,53.5652],[9.7715,53.5629],[9.8263,53.5526],[9.8076,53.5308],[9.7721,53.5434],[9.7763,53.5251],[9.764,53.5079],[9.8024,53.4933],[9.7998,53.4696],[9.8565,53.435],[9.8959,53.4574],[9.9215,53.4366],[9.9844,53.4154],[10.0216,53.4306],[10.0518,53.4639],[10.0783,53.4537],[10.1051,53.4291],[10.1396,53.4206],[10.1656,53.3994],[10.2238,53.3953],[10.2438,53.3996],[10.2559,53.4161],[10.308,53.4332]]]]},"properties":{"ags":"02","gen":"Hamburg","bez":"Freie und Hansestadt"}},
{"type":"Feature","geometry":{"type":"MultiPolygon","coordinates":[[[[9.6916,53.5616],[9.6654,53.5645],[9.6766,53.5568],[9.6897,53.5599],[9.7305,53.556],[9.7605,53.5512],[9.7742,53.5536],[9.7403,53.5569],[9.732,53.5575],[9.7301,53.5576],[9.7163,53.5585],[9.6996,53.56],[9.6916,53.5616]]],[[[6.9067,53.6495],[6.8662,53.6451],[6.8904,53.6254],[6.9067,53.6495]]],[[[7.4318,53.7271],[7.3939,53.7361],[7.3901,53.7202],[7.4318,53.7271]]],[[[7.1025,53.6811],[7.0593,53.6887],[6.8633,53.6688],[6.8704,53.662],[6.9898,53.6745],[7.1025,53.6811]]],[[[7.7245,53.782],[7.7003,53.781],[7.6693,53.767],[7.7356,53.7606],[7.7952,53.7693],[7.8133,53.781],[7.7245,53.782]]],[[[7.5653,53.7592],[7.4909,53.7566],[7.4693,53.7461],[7.4615,53.7242],[7.4942,53.7264],[7.5116,53.7433],[7.5691,53.7481],[7.6282,53.7475],[7.639,53.756],[7.5653,53.7592]]],[[[7.3439,53.7255],[7.3148,53.7269],[7.2304,53.7224],[7.1904,53.7231],[7.1434,53.7112],[7.142,53.7006],[7.1914,53.6993],[7.2702,53.7037],[7.3253,53.7126],[7.3439,53.7255]]],[[[6.7847,53.6126],[6.7681,53.617],[6.6565,53.6079],[6.6646,53.5779],[6.6974,53.5654],[6.7847,53.6126]]],[[[9.7721,53.5434],[9.7155,53.5515],[9.6852,53.5478],[9.6493,53.568],[9.574,53.5934],[9.5374,53.6153],[9.5181,53.6366],[9.4956,53.6746],[9.477,53.6907],[9.4175,53.7252],[9.3574,53.7862],[9.3262,53.826],[9.2746,53.8576],[9.1696,53.8667],[9.0889,53.8621],[9.0146,53.8364],[8.9785,53.84],[8.9062,53.8288],[8.7749,53.8374],[8.7311,53.8586],[8.7022,53.8787],[8.6693,53.8917],[8.6149,53.8821],[8.542,53.8071],[8.5392,53.7888],[8.499,53.7163],[8.4834,53.6948],[8.484,53.6559],[8.5204,53.6062],[8.5337,53.6076],[8.591,53.5944],[8.6402,53.6045],[8.6427,53.5926],[8.618,53.5787],[8.6441,53.5492],[8.6398,53.5253],[8.6506,53.5108],[8.6059,53.4842],[8.5697,53.4876],[8.4927,53.4751],[8.5146,53.5014],[8.5527,53.5162],[8.5483,53.5389],[8.5113,53.5521],[8.4621,53.5529],[8.3839,53.5749],[8.349,53.6062],[8.3116,53.6163],[8.2626,53.6001],[8.243,53.5824],[8.2308,53.5208],[8.2648,53.5185],[8.2994,53.5255],[8.3169,53.5146],[8.3146,53.4565],[8.2976,53.4306],[8.2508,53.3986],[8.2108,53.4015],[8.147,53.4501],[8.0977,53.4461],[8.0623,53.4825],[8.0623,53.5057],[8.1021,53.5034],[8.1535,53.5134],[8.1687,53.5447],[8.1424,53.5797],[8.0886,53.6409],[8.0447,53.6414],[8.0326,53.6567],[8.024,53.6927],[8.0121,53.7117],[7.9133,53.7178],[7.7878,53.7094],[7.7647,53.7018],[7.6849,53.7008],[7.5881,53.6802],[7.5247,53.6721],[7.4866,53.6821],[7.3765,53.6825],[7.3605,53.6868],[7.311,53.6823],[7.2431,53.6685],[7.1826,53.6409],[7.137,53.6053],[7.1124,53.5948],[7.0871,53.5715],[7.1323,53.5392],[7.1227,53.5298],[7.0688,53.5268],[7.0336,53.53],[7.0484,53.5093],[7.0247,53.4838],[7.012,53.4341],[7.0081,53.3781],[6.9994,53.3599],[7.0287,53.3363],[7.1869,53.3348],[7.2578,53.3297],[7.2328,53.2947],[7.2362,53.275],[7.2089,53.2431],[7.2176,53.199],[7.1789,53.1381],[7.1829,53.1217],[7.2028,53.1133],[7.1993,53.081],[7.2128,53.011],[7.1816,52.9413],[7.1047,52.8642],[7.0873,52.8499],[7.0927,52.8382],[7.072,52.8109],[7.0547,52.6444],[7.0419,52.6327],[6.9758,52.6463],[6.953,52.6389],[6.9197,52.6398],[6.8982,52.6511],[6.8221,52.6477],[6.7774,52.6516],[6.742,52.6453],[6.7143,52.6268],[6.7271,52.6148],[6.7187,52.5887],[6.7667,52.5635],[6.7262,52.5632],[6.7161,52.5486],[6.6809,52.5533],[6.7054,52.5203],[6.6977,52.4863],[6.7531,52.4638],[6.7746,52.4596],[6.8543,52.4596],[6.8619,52.4514],[6.9417,52.4355],[6.9622,52.4446],[6.9776,52.4655],[6.994,52.4655],[7.0109,52.4291],[7.0358,52.4025],[7.0588,52.3993],[7.0722,52.3734],[7.0722,52.3523],[7.0564,52.3381],[7.0267,52.2922],[7.0424,52.2561],[7.0659,52.2413],[7.0981,52.2428],[7.1212,52.2611],[7.1532,52.2665],[7.2979,52.264],[7.3175,52.2803],[7.3616,52.2883],[7.3865,52.3093],[7.4272,52.314],[7.4378,52.3334],[7.5299,52.3699],[7.5704,52.3786],[7.5828,52.4037],[7.6027,52.421],[7.571,52.4323],[7.6042,52.4751],[7.6835,52.4566],[7.7023,52.4344],[7.7138,52.401],[7.7255,52.3999],[7.8071,52.3714],[7.843,52.369],[7.8918,52.3805],[7.9367,52.365],[7.9486,52.3351],[7.9872,52.3036],[7.934,52.3026],[7.9322,52.288],[7.9563,52.2736],[7.9249,52.2615],[7.9266,52.2265],[7.8998,52.2068],[7.9081,52.1899],[7.9388,52.1761],[7.9743,52.1711],[8.002,52.16],[8.0078,52.1153],[7.9718,52.116],[7.9581,52.1052],[7.8883,52.0856],[7.9207,52.058],[7.9169,52.0516],[7.9798,52.0364],[7.9937,52.0496],[8.0308,52.0679],[8.0667,52.0681],[8.1035,52.0611],[8.1503,52.075],[8.1925,52.0726],[8.2089,52.0968],[8.2459,52.1214],[8.2862,52.1321],[8.3637,52.1184],[8.3732,52.1098],[8.4106,52.1151],[8.4052,52.1311],[8.4535,52.1554],[8.4925,52.1665],[8.5079,52.1884],[8.4563,52.1981],[8.4487,52.2103],[8.4611,52.2291],[8.4662,52.2676],[8.4588,52.2945],[8.4693,52.3134],[8.4535,52.3306],[8.4394,52.3627],[8.3931,52.3846],[8.3136,52.406],[8.322,52.4262],[8.304,52.4343],[8.2974,52.4545],[8.35,52.4516],[8.3597,52.444],[8.4012,52.4509],[8.4288,52.448],[8.4543,52.461],[8.4603,52.4903],[8.5088,52.5147],[8.5569,52.4991],[8.6524,52.5314],[8.6987,52.5088],[8.7089,52.4775],[8.7034,52.4427],[8.7171,52.4251],[8.7109,52.4082],[8.7461,52.3879],[8.7868,52.3987],[8.8551,52.3892],[8.9031,52.4046],[8.9325,52.4012],[8.9807,52.4284],[8.9895,52.4518],[9.0121,52.4573],[9.0225,52.4766],[9.0542,52.5002],[9.0952,52.4981],[9.1256,52.4683],[9.0945,52.4428],[9.1238,52.4215],[9.1238,52.4055],[9.1021,52.3884],[9.0837,52.3548],[9.0274,52.3456],[8.9983,52.3262],[8.9853,52.2957],[8.9788,52.2615],[9.033,52.2495],[9.0765,52.2338],[9.0459,52.2108],[9.0403,52.1847],[8.9935,52.1879],[9.0162,52.1692],[9.0178,52.1324],[9.0534,52.1482],[9.107,52.1324],[9.1447,52.1349],[9.1558,52.1143],[9.1364,52.0997],[9.1766,52.0857],[9.1904,52.0696],[9.1744,52.0604],[9.1769,52.0337],[9.1974,52.0117],[9.1968,51.9969],[9.1747,51.9833],[9.1882,51.9647],[9.2169,51.9736],[9.2617,51.9768],[9.2788,51.9612],[9.2721,51.9323],[9.2951,51.9199],[9.3152,51.9227],[9.3408,51.908],[9.3443,51.8802],[9.3629,51.8649],[9.4066,51.8556],[9.4417,51.8305],[9.4281,51.8143],[9.4366,51.7893],[9.4073,51.7636],[9.3754,51.7436],[9.3948,51.73],[9.4004,51.7055],[9.3867,51.6887],[9.3955,51.6734],[9.379,51.6654],[9.3863,51.646],[9.4405,51.6504],[9.4937,51.6575],[9.4965,51.631],[9.5245,51.6265],[9.5436,51.6399],[9.5652,51.6254],[9.6096,51.6296],[9.6366,51.6234],[9.6378,51.6088],[9.6909,51.5763],[9.684,51.5665],[9.634,51.5845],[9.6252,51.5737],[9.6478,51.5525],[9.6152,51.5468],[9.6089,51.5222],[9.5889,51.5223],[9.6097,51.4911],[9.643,51.466],[9.6276,51.4442],[9.6436,51.4183],[9.5981,51.3991],[9.5793,51.4018],[9.5484,51.359],[9.6068,51.3258],[9.7087,51.3038],[9.7323,51.2952],[9.7682,51.3067],[9.7454,51.319],[9.7021,51.3646],[9.7385,51.3692],[9.7659,51.386],[9.7914,51.3891],[9.8035,51.4104],[9.8505,51.4014],[9.8533,51.4148],[9.906,51.4211],[9.9311,51.3927],[9.9283,51.3753],[9.9565,51.3911],[9.9874,51.3979],[10.0111,51.4208],[10.0423,51.4235],[10.0583,51.4353],[10.1169,51.4302],[10.1422,51.4446],[10.1743,51.4463],[10.1902,51.4807],[10.2057,51.4872],[10.2332,51.4708],[10.2447,51.4837],[10.2997,51.4939],[10.3012,51.5076],[10.3423,51.5195],[10.3668,51.5422],[10.3786,51.5627],[10.3773,51.5887],[10.4444,51.5897],[10.4957,51.5728],[10.5103,51.5562],[10.5603,51.5571],[10.612,51.5792],[10.6568,51.5583],[10.6663,51.5781],[10.6387,51.5841],[10.6402,51.622],[10.7014,51.6422],[10.6705,51.6669],[10.6631,51.6912],[10.6678,51.7105],[10.642,51.7253],[10.6261,51.759],[10.593,51.7677],[10.5815,51.78],[10.5742,51.8109],[10.6026,51.8545],[10.6486,51.8884],[10.6489,51.9072],[10.6133,51.9215],[10.6225,51.9475],[10.6475,51.9536],[10.6062,51.9773],[10.5868,51.9827],[10.5612,52.0041],[10.639,52.0153],[10.6555,52.0247],[10.6479,52.0417],[10.701,52.0497],[10.8287,52.0477],[10.8765,52.059],[10.9622,52.0576],[10.9707,52.0863],[10.9422,52.1031],[10.9803,52.1081],[11.0175,52.1283],[11.0463,52.1369],[11.0604,52.1537],[11.0537,52.1728],[11.0143,52.1819],[11.0214,52.205],[11.0449,52.2151],[11.0772,52.2187],[11.0786,52.2394],[11.0597,52.2426],[11.0522,52.2674],[11.0291,52.2701],[11.0138,52.2866],[11.0392,52.3017],[11.0021,52.3366],[11.0695,52.3579],[11.065,52.3769],[11.0189,52.3922],[11.0056,52.4089],[10.9605,52.4368],[10.9337,52.461],[10.9436,52.4923],[10.9748,52.5014],[11.0088,52.4967],[10.9594,52.5352],[10.9376,52.5674],[10.9397,52.5888],[10.9756,52.6068],[10.9642,52.6259],[10.9303,52.6114],[10.9151,52.6176],[10.8331,52.7009],[10.8245,52.718],[10.7965,52.7147],[10.7917,52.7482],[10.7552,52.7858],[10.7569,52.8198],[10.8006,52.8503],[10.8348,52.8475],[10.8689,52.8554],[10.9396,52.8533],[10.9855,52.882],[10.9926,52.9065],[11.039,52.9134],[11.0987,52.9129],[11.1131,52.8957],[11.1547,52.9019],[11.2206,52.8977],[11.2411,52.879],[11.2942,52.8871],[11.2954,52.8749],[11.4091,52.9051],[11.4261,52.9199],[11.4701,52.9389],[11.505,52.941],[11.4923,52.9597],[11.5064,52.9997],[11.5434,52.9995],[11.5978,53.0359],[11.5519,53.0514],[11.5021,53.0501],[11.4669,53.0727],[11.4462,53.0785],[11.4026,53.0724],[11.3531,53.0547],[11.3313,53.0587],[11.3098,53.0779],[11.2696,53.1008],[11.2657,53.122],[11.2457,53.1364],[11.2147,53.1444],[11.1846,53.1364],[11.1719,53.1566],[11.1953,53.1767],[11.1799,53.1867],[11.1367,53.1918],[11.0893,53.2146],[11.0627,53.235],[11.0087,53.2991],[10.988,53.3334],[10.9097,53.3377],[10.8508,53.31],[10.8286,53.3069],[10.7979,53.3148],[10.7381,53.3423],[10.7053,53.3687],[10.6307,53.3708],[10.595,53.3639],[10.5022,53.3735],[10.4435,53.393],[10.3759,53.4247],[10.3289,53.4253],[10.308,53.4332],[10.2559,53.4161],[10.2438,53.3996],[10.2238,53.3953],[10.1656,53.3994],[10.1396,53.4206],[10.1051,53.4291],[10.0783,53.4537],[10.0518,53.4639],[10.0216,53.4306],[9.9844,53.4154],[9.9215,53.4366],[9.8959,53.4574],[9.8565,53.435],[9.7998,53.4696],[9.8024,53.4933],[9.764,53.5079],[9.7763,53.5251],[9.7721,53.5434]],[[8.5046,53.2289],[8.5537,53.2078],[8.5785,53.2173],[8.5933,53.1836],[8.628,53.1984],[8.6575,53.1822],[8.7287,53.1802],[8.7442,53.1642],[8.8234,53.1636],[8.8631,53.1322],[8.9121,53.1326],[8.9368,53.1512],[8.9566,53.1472],[8.9842,53.1261],[8.947,53.1161],[8.963,53.1003],[8.9698,53.0568],[8.9803,53.0467],[8.9381,53.025],[8.9359,53.0137],[8.8975,53.013],[8.8865,53.0217],[8.8185,53.0225],[8.7727,53.0451],[8.7301,53.0355],[8.7098,53.046],[8.7092,53.0759],[8.6741,53.0867],[8.6577,53.1185],[8.6279,53.143],[8.6166,53.169],[8.5817,53.1736],[8.5314,53.1881],[8.5047,53.2008],[8.4817,53.2264],[8.5046,53.2289]]]]},"properties":{"ags":"03","gen":"Niedersachsen","bez":"Land"}},
{"type":"Feature","geometry":{"type":"MultiPolygon","coordinates":[[[[8.5527,53.5162],[8.5146,53.5014],[8.4927,53.4751],[8.5697,53.4876],[8.6059,53.4842],[8.6506,53.5108],[8.6398,53.5253],[8.6441,53.5492],[8.618,53.5787],[8.6427,53.5926],[8.6402,53.6045],[8.591,53.5944],[8.5337,53.6076],[8.5204,53.6062],[8.5186,53.5963],[8.5763,53.5389],[8.5527,53.5162]]],[[[8.5046,53.2289],[8.4817,53.2264],[8.5047,53.2008],[8.5314,53.1881],[8.5817,53.1736],[8.6166,53.169],[8.6279,53.143],[8.6577,53.1185],[8.6741,53.0867],[8.7092,53.0759],[8.7098,53.046],[8.7301,53.0355],[8.7727,53.0451],[8.8185,53.0225],[8.8865,53.0217],[8.8975,53.013],[8.9359,53.0137],[8.9381,53.025],[8.9803,53.0467],[8.9698,53.0568],[8.963,53.1003],[8.947,53.1161],[8.9842,53.1261],[8.9566,53.1472],[8.9368,53.1512],[8.9121,53.1326],[8.8631,53.1322],[8.8234,53.1636],[8.7442,53.1642],[8.7287,53.1802],[8.6575,53.1822],[8.628,53.1984],[8.5933,53.1836],[8.5785,53.2173],[8.5537,53.2078],[8.5046,53.2289]]]]},"properties":{"ags":"04","gen":"Bremen","bez":"Freie Hansestadt"}},
{"type":"Feature","geometry":{"type":"MultiPolygon","coordinates":[[[[6.1823,50.6451],[6.1833,50.6323],[6.2355,50.6259],[6.2667,50.6272],[6.2608,50.6416],[6.1882,50.6393],[6.1823,50.6451]]],[[[6.2379,50.5779],[6.2252,50.5905],[6.2031,50.5693],[6.1744,50.5575],[6.1957,50.5362],[6.2087,50.5542],[6.2233,50.5559],[6.2379,50.5779]]],[[[9.4405,51.6504],[9.3863,51.646],[9.379,51.6654],[9.3955,51.6734],[9.3867,51.6887],[9.4004,51.7055],[9.3948,51.73],[9.3754,51.7436],[9.4073,51.7636],[9.4366,51.7893],[9.4281,51.8143],[9.4417,51.8305],[9.4066,51.8556],[9.3629,51.8649],[9.3443,51.8802],[9.3408,51.908],[9.3152,51.9227],[9.2951,51.9199],[9.2721,51.9323],[9.2788,51.9612],[9.2617,51.9768],[9.2169,51.9736],[9.1882,51.9647],[9.1747,51.9833],[9.1968,51.9969],[9.1974,52.0117],[9.1769,52.0337],[9.1744,52.0604],[9.1904,52.0696],[9.1766,52.0857],[9.1364,52.0997],[9.1558,52.1143],[9.1447,52.1349],[9.107,52.1324],[9.0534,52.1482],[9.0178,52.1324],[9.0162,52.1692],[8.9935,52.1879],[9.0403,52.1847],[9.0459,52.2108],[9.0765,52.2338],[9.033,52.2495],[8.9788,52.2615],[8.9853,52.2957],[8.9983,52.3262],[9.0274,52.3456],[9.0837,52.3548],[9.1021,52.3884],[9.1238,52.4055],[9.1238,52.4215],[9.0945,52.4428],[9.1256,52.4683],[9.0952,52.4981],[9.0542,52.5002],[9.0225,52.4766],[9.0121,52.4573],[8.9895,52.4518],[8.9807,52.4284],[8.9325,52.4012],[8.9031,52.4046],[8.8551,52.3892],[8.7868,52.3987],[8.7461,52.3879],[8.7109,52.4082],[8.7171,52.4251],[8.7034,52.4427],[8.7089,52.4775],[8.6987,52.5088],[8.6524,52.5314],[8.5569,52.4991],[8.5088,52.5147],[8.4603,52.4903],[8.4543,52.461],[8.4288,52.448],[8.4012,52.4509],[8.3597,52.444],[8.35,52.4516],[8.2974,52.4545],[8.304,52.4343],[8.322,52.4262],[8.3136,52.406],[8.3931,52.3846],[8.4394,52.3627],[8.4535,52.3306],[8.4693,52.3134],[8.4588,52.2945],[8.4662,52.2676],[8.4611,52.2291],[8.4487,52.2103],[8.4563,52.1981],[8.5079,52.1884],[8.4925,52.1665],[8.4535,52.1554],[8.4052,52.1311],[8.4106,52.1151],[8.3732,52.1098],[8.3637,52.1184],[8.2862,52.1321],[8.2459,52.1214],[8.2089,52.0968],[8.1925,52.0726],[8.1503,52.075],[8.1035,52.0611],[8.0667,52.0681],[8.0308,52.0679],[7.9937,52.0496],[7.9798,52.0364],[7.9169,52.0516],[7.9207,52.058],[7.8883,52.0856],[7.9581,52.1052],[7.9718,52.116],[8.0078,52.1153],[8.002,52.16],[7.9743,52.1711],[7.9388,52.1761],[7.9081,52.1899],[7.8998,52.2068],[7.9266,52.2265],[7.9249,52.2615],[7.9563,52.2736],[7.9322,52.288],[7.934,52.3026],[7.9872,52.3036],[7.9486,52.3351],[7.9367,52.365],[7.8918,52.3805],[7.843,52.369],[7.8071,52.3714],[7.7255,52.3999],[7.7138,52.401],[7.7023,52.4344],[7.6835,52.4566],[7.6042,52.4751],[7.571,52.4323],[7.6027,52.421],[7.5828,52.4037],[7.5704,52.3786],[7.5299,52.3699],[7.4378,52.3334],[7.4272,52.314],[7.3865,52.3093],[7.3616,52.2883],[7.3175,52.2803],[7.2979,52.264],[7.1532,52.2665],[7.1212,52.2611],[7.0981,52.2428],[7.0659,52.2413],[7.039,52.2276],[6.9892,52.2269],[6.9513,52.181],[6.9082,52.176],[6.882,52.1559],[6.8728,52.1322],[6.8554,52.1204],[6.7606,52.1187],[6.7512,52.0855],[6.7356,52.0747],[6.6962,52.0702],[6.6877,52.0399],[6.7147,52.0399],[6.7526,52.0286],[6.8266,51.9935],[6.8285,51.9641],[6.7986,51.9588],[6.794,51.9351],[6.77,51.9162],[6.7217,51.8962],[6.6923,51.9146],[6.5524,51.8862],[6.4726,51.8538],[6.4511,51.8653],[6.3921,51.874],[6.4092,51.8523],[6.4078,51.8281],[6.3629,51.8362],[6.3444,51.8509],[6.3066,51.8492],[6.2957,51.8683],[6.2154,51.8678],[6.1959,51.8746],[6.1858,51.8927],[6.1572,51.9052],[6.1255,51.8983],[6.1445,51.8699],[6.1665,51.8614],[6.1664,51.8408],[6.0934,51.8509],[6.0634,51.8654],[6.0553,51.8523],[5.9937,51.8308],[5.9629,51.8368],[5.945,51.8237],[5.9782,51.7972],[5.9905,51.7662],[5.9579,51.7515],[5.9591,51.7383],[5.9942,51.7383],[6.045,51.717],[6.0262,51.7087],[6.0369,51.6728],[6.088,51.6598],[6.1095,51.6468],[6.0912,51.6059],[6.1213,51.5928],[6.157,51.5667],[6.177,51.5387],[6.2121,51.5134],[6.2234,51.4749],[6.2052,51.3995],[6.2261,51.3605],[6.1686,51.3329],[6.1541,51.3074],[6.1245,51.2746],[6.0727,51.2426],[6.068,51.2205],[6.0733,51.183],[6.0823,51.1716],[6.1108,51.1738],[6.165,51.1944],[6.1807,51.1864],[6.1388,51.1733],[6.1754,51.1585],[6.1606,51.1493],[6.096,51.1348],[6.0359,51.0962],[5.9978,51.0843],[5.971,51.0578],[5.9672,51.0443],[5.9381,51.0351],[5.9132,51.0667],[5.8868,51.0521],[5.8792,51.0176],[5.9055,51.0022],[5.8972,50.9748],[5.9552,50.9884],[5.9682,50.9795],[6.0174,50.9834],[6.0182,50.9344],[6.0925,50.9178],[6.0753,50.8934],[6.0882,50.8724],[6.0773,50.8607],[6.0189,50.8463],[6.0251,50.8142],[6.0035,50.8013],[5.9749,50.798],[6.0278,50.7737],[6.0214,50.7531],[6.0343,50.7334],[6.0732,50.721],[6.1107,50.7229],[6.1653,50.6628],[6.1905,50.6651],[6.1863,50.642],[6.2107,50.6406],[6.233,50.6499],[6.2656,50.6427],[6.274,50.6305],[6.2485,50.6046],[6.2368,50.5663],[6.2248,50.5541],[6.2125,50.5543],[6.197,50.531],[6.2307,50.4975],[6.2699,50.5045],[6.3091,50.5014],[6.3348,50.489],[6.3405,50.4622],[6.3776,50.4394],[6.37,50.4098],[6.3422,50.38],[6.3606,50.3715],[6.3763,50.3552],[6.4079,50.3351],[6.405,50.3233],[6.4205,50.3233],[6.4033,50.3465],[6.3919,50.3798],[6.4486,50.3713],[6.4587,50.344],[6.4828,50.3384],[6.5305,50.3693],[6.5432,50.3662],[6.6031,50.3882],[6.6254,50.3749],[6.6215,50.3561],[6.65,50.3482],[6.6674,50.372],[6.706,50.3428],[6.7709,50.3612],[6.8007,50.3618],[6.7705,50.3977],[6.7851,50.4206],[6.7437,50.4409],[6.7646,50.4508],[6.7564,50.4649],[6.7676,50.4823],[6.8009,50.4913],[6.8121,50.4722],[6.855,50.4542],[6.8944,50.467],[6.9071,50.5026],[6.889,50.5083],[6.9314,50.5356],[6.922,50.5543],[6.9514,50.5634],[6.9761,50.5578],[6.9981,50.565],[7.049,50.6032],[7.0934,50.586],[7.1194,50.6123],[7.1479,50.6003],[7.1547,50.6147],[7.2157,50.6279],[7.2565,50.6246],[7.359,50.6495],[7.3558,50.6652],[7.3721,50.6821],[7.3602,50.6971],[7.3709,50.7152],[7.4071,50.7182],[7.4234,50.71],[7.4798,50.7183],[7.5519,50.7463],[7.5833,50.7379],[7.601,50.7663],[7.6555,50.7679],[7.6778,50.7817],[7.6818,50.7968],[7.6641,50.8154],[7.6994,50.825],[7.7293,50.8505],[7.758,50.8435],[7.7573,50.9202],[7.7928,50.9423],[7.8508,50.9244],[7.8267,50.8908],[7.8453,50.8784],[7.8825,50.8749],[7.9059,50.8481],[7.967,50.844],[7.9766,50.8249],[7.9673,50.7982],[7.9689,50.7739],[8.0403,50.7257],[8.0392,50.6985],[8.0597,50.695],[8.0992,50.7036],[8.1258,50.6858],[8.1426,50.6954],[8.1668,50.7357],[8.1518,50.7599],[8.1356,50.7672],[8.1255,50.7884],[8.1658,50.8035],[8.1889,50.8292],[8.2313,50.8506],[8.2697,50.8819],[8.292,50.8821],[8.3055,50.8611],[8.3692,50.8646],[8.388,50.8919],[8.4267,50.9125],[8.4564,50.9165],[8.4493,50.9411],[8.4597,50.9667],[8.4972,50.9896],[8.5014,50.9985],[8.5388,51.0194],[8.5166,51.0432],[8.5276,51.0629],[8.5017,51.0795],[8.5281,51.097],[8.5491,51.1019],[8.6206,51.1002],[8.6587,51.0951],[8.7077,51.1163],[8.6943,51.1364],[8.7484,51.1686],[8.7505,51.1992],[8.7276,51.2501],[8.722,51.2737],[8.6283,51.2605],[8.5936,51.2475],[8.5782,51.2675],[8.5563,51.2775],[8.586,51.2982],[8.6211,51.3365],[8.6543,51.3468],[8.7005,51.3774],[8.7277,51.3722],[8.804,51.3908],[8.854,51.3771],[8.8896,51.3927],[8.9395,51.3895],[8.9481,51.4282],[8.9188,51.4303],[8.9218,51.4461],[8.8904,51.4819],[8.9415,51.4998],[9.0176,51.5182],[9.0341,51.504],[9.0765,51.5035],[9.0921,51.4873],[9.0772,51.4649],[9.1026,51.4432],[9.1493,51.442],[9.1851,51.4663],[9.2165,51.4596],[9.2166,51.4812],[9.2421,51.4977],[9.2621,51.4987],[9.2823,51.5144],[9.3159,51.523],[9.3111,51.5373],[9.3543,51.5817],[9.3563,51.5977],[9.3371,51.6147],[9.3719,51.6256],[9.4267,51.6308],[9.4405,51.6504]]]]},"properties":{"ags":"05","gen":"Nordrhein-Westfalen","bez":"Land"}},
{"type":"Feature","geometry":{"type":"Polygon","coordinates":[[[9.9283,51.3753],[9.9311,51.3927],[9.906,51.4211],[9.8533,51.4148],[9.8505,51.4014],[9.8035,51.4104],[9.7914,51.3891],[9.7659,51.386],[9.7385,51.3692],[9.7021,51.3646],[9.7454,51.319],[9.7682,51.3067],[9.7323,51.2952],[9.7087,51.3038],[9.6068,51.3258],[9.5484,51.359],[9.5793,51.4018],[9.5981,51.3991],[9.6436,51.4183],[9.6276,51.4442],[9.643,51.466],[9.6097,51.4911],[9.5889,51.5223],[9.6089,51.5222],[9.6152,51.5468],[9.6478,51.5525],[9.6252,51.5737],[9.634,51.5845],[9.684,51.5665],[9.6909,51.5763],[9.6378,51.6088],[9.6366,51.6234],[9.6096,51.6296],[9.5652,51.6254],[9.5436,51.6399],[9.5245,51.6265],[9.4965,51.631],[9.4937,51.6575],[9.4405,51.6504],[9.4267,51.6308],[9.3719,51.6256],[9.3371,51.6147],[9.3563,51.5977],[9.3543,51.5817],[9.3111,51.5373],[9.3159,51.523],[9.2823,51.5144],[9.2621,51.4987],[9.2421,51.4977],[9.2166,51.4812],[9.2165,51.4596],[9.1851,51.4663],[9.1493,51.442],[9.1026,51.4432],[9.0772,51.4649],[9.0921,51.4873],[9.0765,51.5035],[9.0341,51.504],[9.0176,51.5182],[8.9415,51.4998],[8.8904,51.4819],[8.9218,51.4461],[8.9188,51.4303],[8.9481,51.4282],[8.9395,51.3895],[8.8896,51.3927],[8.854,51.3771],[8.804,51.3908],[8.7277,51.3722],[8.7005,51.3774],[8.6543,51.3468],[8.6211,51.3365],[8.586,51.2982],[8.5563,51.2775],[8.5782,51.2675],[8.5936,51.2475],[8.6283,51.2605],[8.722,51.2737],[8.7276,51.2501],[8.7505,51.1992],[8.7484,51.1686],[8.6943,51.1364],[8.7077,51.1163],[8.6587,51.0951],[8.6206,51.1002],[8.5491,51.1019],[8.5281,51.097],[8.5017,51.0795],[8.5276,51.0629],[8.5166,51.0432],[8.5388,51.0194],[8.5014,50.9985],[8.4972,50.9896],[8.4597,50.9667],[8.4493,50.9411],[8.4564,50.9165],[8.4267,50.9125],[8.388,50.8919],[8.3692,50.8646],[8.3055,50.8611],[8.292,50.8821],[8.2697,50.8819],[8.2313,50.8506],[8.1889,50.8292],[8.1658,50.8035],[8.1255,50.7884],[8.1356,50.7672],[8.1518,50.7599],[8.1668,50.7357],[8.1426,50.6954],[8.1258,50.6858],[8.1101,50.6573],[8.1403,50.6317],[8.128,50.6077],[8.1522,50.5937],[8.1319,50.557],[8.1054,50.5341],[8.0705,50.538],[8.0429,50.5538],[7.9829,50.5115],[7.9877,50.4727],[8.0108,50.4527],[7.9906,50.4439],[7.9749,50.4142],[7.9907,50.3995],[8.021,50.3987],[8.0659,50.3672],[8.0772,50.3404],[8.1072,50.3216],[8.1024,50.3098],[8.1206,50.2959],[8.1219,50.2772],[8.1068,50.2609],[8.0721,50.2732],[8.0359,50.2712],[8.0256,50.2617],[8.0561,50.2338],[8.0161,50.2172],[7.9925,50.2323],[7.9516,50.2143],[7.9208,50.208],[7.9125,50.1955],[7.8828,50.1813],[7.884,50.1696],[7.9226,50.1465],[7.9276,50.1194],[7.9007,50.1223],[7.8847,50.1144],[7.8449,50.1235],[7.8313,50.0995],[7.8035,50.0846],[7.7734,50.0569],[7.8587,50.0049],[7.8644,49.9827],[7.8873,49.9718],[7.9713,49.9787],[8.0367,50.0024],[8.0725,50.0059],[8.1114,50.0189],[8.1863,50.0355],[8.2347,50.0306],[8.2724,50.0103],[8.3253,49.971],[8.3422,49.949],[8.3534,49.92],[8.3425,49.8876],[8.3575,49.8649],[8.3854,49.8509],[8.3826,49.819],[8.4034,49.8],[8.4142,49.7771],[8.4292,49.7664],[8.4743,49.7683],[8.4774,49.7572],[8.4382,49.7223],[8.3653,49.6997],[8.3565,49.678],[8.3808,49.6293],[8.4064,49.6075],[8.4224,49.5834],[8.4643,49.5895],[8.495,49.573],[8.5263,49.548],[8.5416,49.5286],[8.5669,49.5191],[8.5913,49.5213],[8.6213,49.545],[8.5939,49.6109],[8.6794,49.6257],[8.6843,49.5702],[8.7101,49.5322],[8.7246,49.5259],[8.7918,49.5143],[8.8182,49.5044],[8.886,49.5058],[8.8987,49.4838],[8.8765,49.4667],[8.8519,49.4836],[8.8272,49.4705],[8.8346,49.4504],[8.8305,49.4232],[8.8066,49.4192],[8.8546,49.3966],[8.9295,49.4498],[8.9319,49.4706],[8.9635,49.5015],[8.9876,49.5057],[9.0168,49.4977],[9.0408,49.4991],[9.065,49.5296],[9.0865,49.5438],[9.103,49.5775],[9.0659,49.6197],[9.1011,49.6411],[9.1034,49.6604],[9.0889,49.669],[9.0942,49.6959],[9.1191,49.698],[9.1491,49.7431],[9.1069,49.7587],[9.1134,49.7737],[9.1345,49.7833],[9.1289,49.7958],[9.0909,49.7907],[9.064,49.8318],[9.0361,49.8465],[9.0501,49.8663],[9.0372,49.8793],[9.0323,49.9247],[9.0157,49.989],[9.0355,50.0018],[9.0322,50.0363],[8.9759,50.0488],[8.9993,50.0694],[8.9974,50.0916],[9.0183,50.1116],[9.0893,50.1168],[9.1215,50.1261],[9.1564,50.112],[9.1917,50.1283],[9.1833,50.1379],[9.236,50.1463],[9.2604,50.1385],[9.2859,50.1417],[9.3076,50.1334],[9.3736,50.131],[9.3945,50.0975],[9.4131,50.0841],[9.4782,50.0948],[9.5125,50.0944],[9.5193,50.114],[9.5076,50.1456],[9.5282,50.1681],[9.4981,50.1755],[9.5156,50.1953],[9.4948,50.2267],[9.5027,50.2432],[9.542,50.2243],[9.6216,50.2231],[9.6358,50.2352],[9.6482,50.2652],[9.7034,50.2808],[9.7475,50.3135],[9.7433,50.3622],[9.7593,50.4024],[9.7513,50.4115],[9.8026,50.424],[9.808,50.4124],[9.86,50.3975],[9.8831,50.3989],[9.9578,50.4232],[9.9855,50.4434],[9.9975,50.461],[10.0183,50.4665],[10.0412,50.4952],[10.0413,50.5165],[10.0397,50.5326],[10.0618,50.5567],[10.0454,50.5735],[10.0474,50.6008],[10.0372,50.6129],[10.083,50.6337],[10.0489,50.6739],[10.002,50.6766],[9.9497,50.6559],[9.9689,50.6413],[9.9607,50.6295],[9.9269,50.6298],[9.9061,50.6404],[9.877,50.6417],[9.8796,50.6665],[9.9203,50.6978],[9.9118,50.7087],[9.9352,50.7241],[9.9396,50.7559],[9.9289,50.7696],[9.9551,50.7856],[9.9441,50.7942],[9.9523,50.8214],[9.9768,50.8333],[9.998,50.8265],[10.0345,50.8427],[10.0243,50.8672],[10.056,50.8798],[10.0584,50.8902],[10.0342,50.9103],[10.0037,50.9216],[9.991,50.9436],[10.0536,50.9398],[10.0409,50.9675],[10.0243,50.9762],[10.0211,50.9939],[10.0324,51.011],[10.0571,51.0128],[10.1349,50.9956],[10.1908,50.9991],[10.2152,51.0264],[10.1816,51.048],[10.1465,51.0551],[10.1481,51.0837],[10.1755,51.1069],[10.1183,51.1396],[10.1681,51.153],[10.1852,51.1325],[10.2202,51.1857],[10.1775,51.2096],[10.1498,51.2062],[10.1419,51.2187],[10.1132,51.2152],[10.0671,51.2278],[10.0728,51.2404],[10.03,51.2779],[10.0043,51.287],[9.9853,51.2835],[9.9482,51.3163],[9.9299,51.34],[9.9283,51.3753]]]},"properties":{"ags":"06","gen":"Hessen","bez":"Land"}},
{"type":"Feature","geometry":{"type":"Polygon","coordinates":[[[8.1258,50.6858],[8.0992,50.7036],[8.0597,50.695],[8.0392,50.6985],[8.0403,50.7257],[7.9689,50.7739],[7.9673,50.7982],[7.9766,50.8249],[7.967,50.844],[7.9059,50.8481],[7.8825,50.8749],[7.8453,50.8784],[7.8267,50.8908],[7.8508,50.9244],[7.7928,50.9423],[7.7573,50.9202],[7.758,50.8435],[7.7293,50.8505],[7.6994,50.825],[7.6641,50.8154],[7.6818,50.7968],[7.6778,50.7817],[7.6555,50.7679],[7.601,50.7663],[7.5833,50.7379],[7.5519,50.7463],[7.4798,50.7183],[7.4234,50.71],[7.4071,50.7182],[7.3709,50.7152],[7.3602,50.6971],[7.3721,50.6821],[7.3558,50.6652],[7.359,50.6495],[7.2565,50.6246],[7.2157,50.6279],[7.1547,50.6147],[7.1479,50.6003],[7.1194,50.6123],[7.0934,50.586],[7.049,50.6032],[6.9981,50.565],[6.9761,50.5578],[6.9514,50.5634],[6.922,50.5543],[6.9314,50.5356],[6.889,50.5083],[6.9071,50.5026],[6.8944,50.467],[6.855,50.4542],[6.8121,50.4722],[6.8009,50.4913],[6.7676,50.4823],[6.7564,50.4649],[6.7646,50.4508],[6.7437,50.4409],[6.7851,50.4206],[6.7705,50.3977],[6.8007,50.3618],[6.7709,50.3612],[6.706,50.3428],[6.6674,50.372],[6.65,50.3482],[6.6215,50.3561],[6.6254,50.3749],[6.6031,50.3882],[6.5432,50.3662],[6.5305,50.3693],[6.4828,50.3384],[6.4587,50.344],[6.4486,50.3713],[6.3919,50.3798],[6.4033,50.3465],[6.4205,50.3233],[6.405,50.3233],[6.3751,50.3138],[6.3055,50.3176],[6.277,50.2661],[6.2587,50.2678],[6.2187,50.2563],[6.1953,50.237],[6.1768,50.2359],[6.1875,50.1789],[6.1469,50.1778],[6.1406,50.1696],[6.1547,50.1419],[6.1388,50.135],[6.135,50.1133],[6.1195,50.0896],[6.1124,50.0605],[6.1343,50.0394],[6.1302,50.0293],[6.1695,49.9842],[6.1699,49.9635],[6.1929,49.9663],[6.2273,49.9366],[6.2336,49.9004],[6.2621,49.8809],[6.3069,49.8696],[6.3221,49.8526],[6.3642,49.8508],[6.3974,49.8223],[6.432,49.8106],[6.4709,49.8226],[6.517,49.8062],[6.4951,49.7247],[6.5065,49.7164],[6.4804,49.6968],[6.4615,49.692],[6.4261,49.6638],[6.4408,49.6559],[6.4197,49.618],[6.3744,49.5911],[6.359,49.5703],[6.3801,49.5511],[6.4184,49.544],[6.4767,49.5417],[6.4941,49.5306],[6.5229,49.5283],[6.5386,49.5395],[6.5687,49.5377],[6.5884,49.5175],[6.6101,49.5204],[6.617,49.5355],[6.646,49.5391],[6.7283,49.5589],[6.748,49.5579],[6.7782,49.5702],[6.8134,49.592],[6.8354,49.5829],[6.8572,49.6052],[6.8931,49.6167],[6.9277,49.6183],[6.9747,49.6339],[7.0124,49.6284],[7.028,49.6394],[7.0591,49.6305],[7.093,49.6036],[7.1184,49.596],[7.1555,49.6027],[7.1903,49.5771],[7.2244,49.5648],[7.2622,49.5747],[7.2857,49.5169],[7.2795,49.4837],[7.3048,49.4724],[7.2869,49.4577],[7.2464,49.4455],[7.261,49.4236],[7.2894,49.4124],[7.2968,49.3893],[7.3314,49.3789],[7.3558,49.3798],[7.3664,49.3634],[7.3934,49.3635],[7.4038,49.3461],[7.3928,49.3283],[7.3854,49.2941],[7.3653,49.2781],[7.3415,49.2815],[7.3391,49.2639],[7.3065,49.2561],[7.289,49.2306],[7.3029,49.2233],[7.3057,49.201],[7.3501,49.1628],[7.3688,49.1615],[7.3793,49.1749],[7.4359,49.1797],[7.4543,49.1669],[7.494,49.1694],[7.5064,49.1547],[7.4967,49.1354],[7.5155,49.121],[7.5287,49.0971],[7.5691,49.0795],[7.601,49.0832],[7.6308,49.0726],[7.6312,49.0549],[7.6729,49.0452],[7.6959,49.0578],[7.7611,49.0455],[7.7944,49.0657],[7.8668,49.0329],[7.8884,49.0488],[7.9134,49.0413],[7.9318,49.0581],[7.9644,49.0429],[7.9752,49.0266],[7.994,49.029],[8.049,49.0143],[8.0701,48.9963],[8.1405,48.9785],[8.2158,48.9754],[8.2326,48.9666],[8.2773,48.9899],[8.2974,49.0135],[8.3164,49.0605],[8.3546,49.0931],[8.3727,49.152],[8.3676,49.1642],[8.385,49.1983],[8.4053,49.2206],[8.3876,49.2311],[8.4007,49.2442],[8.4398,49.2623],[8.4608,49.2805],[8.4823,49.2865],[8.4872,49.3017],[8.4586,49.3129],[8.4526,49.3291],[8.4798,49.346],[8.4998,49.3715],[8.4654,49.3873],[8.4962,49.4021],[8.5084,49.4328],[8.488,49.444],[8.4598,49.4433],[8.4419,49.4559],[8.4629,49.4729],[8.4453,49.4895],[8.4146,49.562],[8.4224,49.5834],[8.4064,49.6075],[8.3808,49.6293],[8.3565,49.678],[8.3653,49.6997],[8.4382,49.7223],[8.4774,49.7572],[8.4743,49.7683],[8.4292,49.7664],[8.4142,49.7771],[8.4034,49.8],[8.3826,49.819],[8.3854,49.8509],[8.3575,49.8649],[8.3425,49.8876],[8.3534,49.92],[8.3422,49.949],[8.3253,49.971],[8.2724,50.0103],[8.2347,50.0306],[8.1863,50.0355],[8.1114,50.0189],[8.0725,50.0059],[8.0367,50.0024],[7.9713,49.9787],[7.8873,49.9718],[7.8644,49.9827],[7.8587,50.0049],[7.7734,50.0569],[7.8035,50.0846],[7.8313,50.0995],[7.8449,50.1235],[7.8847,50.1144],[7.9007,50.1223],[7.9276,50.1194],[7.9226,50.1465],[7.884,50.1696],[7.8828,50.1813],[7.9125,50.1955],[7.9208,50.208],[7.9516,50.2143],[7.9925,50.2323],[8.0161,50.2172],[8.0561,50.2338],[8.0256,50.2617],[8.0359,50.2712],[8.0721,50.2732],[8.1068,50.2609],[8.1219,50.2772],[8.1206,50.2959],[8.1024,50.3098],[8.1072,50.3216],[8.0772,50.3404],[8.0659,50.3672],[8.021,50.3987],[7.9907,50.3995],[7.9749,50.4142],[7.9906,50.4439],[8.0108,50.4527],[7.9877,50.4727],[7.9829,50.5115],[8.0429,50.5538],[8.0705,50.538],[8.1054,50.5341],[8.1319,50.557],[8.1522,50.5937],[8.128,50.6077],[8.1403,50.6317],[8.1101,50.6573],[8.1258,50.6858]]]},"properties":{"ags":"07","gen":"Rheinland-Pfalz","bez":"Land"}},
{"type":"Feature","geometry":{"type":"MultiPolygon","coordinates":[[[[8.7013,47.7152],[8.6738,47.7048],[8.7177,47.6907],[8.7013,47.7152]]],[[[9.6021,47.5843],[9.6141,47.5812],[9.6577,47.6117],[9.7095,47.6026],[9.764,47.6177],[9.7953,47.6357],[9.8002,47.6505],[9.8294,47.6586],[9.8342,47.6733],[9.8615,47.6776],[9.8864,47.6661],[9.9315,47.6539],[9.9707,47.6536],[10.0019,47.682],[10.0305,47.6745],[10.0586,47.6807],[10.0833,47.6555],[10.1293,47.6761],[10.1394,47.7033],[10.1167,47.7188],[10.1162,47.7614],[10.0825,47.7712],[10.0647,47.7859],[10.1157,47.8109],[10.1335,47.8136],[10.1088,47.841],[10.1017,47.8843],[10.1101,47.9372],[10.0858,47.9537],[10.0875,47.9684],[10.115,47.9763],[10.1196,48.0035],[10.1343,48.0176],[10.1271,48.0327],[10.1413,48.0467],[10.1432,48.0749],[10.1362,48.1114],[10.108,48.1305],[10.0857,48.1822],[10.0837,48.2096],[10.0607,48.2401],[10.069,48.2538],[10.0658,48.2818],[10.0431,48.3004],[9.9981,48.3475],[9.9995,48.3615],[9.9673,48.3744],[9.9899,48.3937],[10.011,48.4017],[10.0335,48.4268],[10.0327,48.4572],[10.0712,48.4584],[10.1174,48.4754],[10.1339,48.4549],[10.1718,48.4578],[10.1847,48.4764],[10.2354,48.489],[10.242,48.5122],[10.2647,48.5198],[10.2963,48.5169],[10.3008,48.5451],[10.3143,48.5556],[10.2971,48.6038],[10.3231,48.6091],[10.2965,48.6336],[10.2683,48.6466],[10.2624,48.6725],[10.273,48.6859],[10.2687,48.7035],[10.3175,48.6829],[10.3474,48.6791],[10.351,48.6547],[10.3894,48.6672],[10.3936,48.6892],[10.4269,48.6868],[10.4166,48.6638],[10.4492,48.6652],[10.4812,48.6821],[10.4834,48.7081],[10.4681,48.7166],[10.4601,48.7361],[10.4387,48.7375],[10.4171,48.7513],[10.4277,48.7916],[10.447,48.8126],[10.4528,48.8519],[10.4502,48.8931],[10.4241,48.9029],[10.457,48.9171],[10.4188,48.9686],[10.3819,48.999],[10.3522,49.006],[10.3454,49.0166],[10.294,49.0428],[10.2848,49.0366],[10.2517,49.0496],[10.2611,49.0627],[10.2455,49.0743],[10.2491,49.0916],[10.2228,49.0979],[10.2303,49.119],[10.2527,49.1299],[10.248,49.1493],[10.2184,49.1635],[10.2066,49.1591],[10.1605,49.1828],[10.126,49.2273],[10.1171,49.2642],[10.1474,49.2685],[10.1539,49.2847],[10.1317,49.3051],[10.1452,49.3165],[10.1048,49.3384],[10.1266,49.3879],[10.1612,49.3904],[10.1337,49.4371],[10.0947,49.4479],[10.1223,49.4639],[10.1012,49.4856],[10.1213,49.511],[10.0841,49.5118],[10.0837,49.5436],[10.04,49.529],[10.0572,49.5193],[10.0282,49.504],[10.0203,49.4866],[9.9266,49.4848],[9.9137,49.4933],[9.9271,49.5361],[9.9208,49.5633],[9.8988,49.5883],[9.8757,49.5786],[9.8522,49.5454],[9.8102,49.5573],[9.8485,49.5777],[9.8459,49.5979],[9.8704,49.6089],[9.8555,49.6415],[9.8301,49.6517],[9.8254,49.6733],[9.8371,49.6832],[9.8318,49.7038],[9.7965,49.7207],[9.7792,49.7225],[9.753,49.7101],[9.7361,49.6877],[9.7193,49.7019],[9.7097,49.7271],[9.6772,49.7162],[9.6761,49.6933],[9.6505,49.6881],[9.6254,49.7037],[9.6346,49.7187],[9.638,49.7539],[9.6494,49.765],[9.6487,49.7915],[9.6197,49.7832],[9.5576,49.7762],[9.5214,49.7612],[9.5015,49.7888],[9.4791,49.7869],[9.4688,49.7738],[9.4463,49.773],[9.4208,49.7888],[9.3915,49.7701],[9.3791,49.7769],[9.3132,49.7655],[9.3238,49.7457],[9.3417,49.7342],[9.3532,49.7074],[9.3825,49.7075],[9.3814,49.7252],[9.4,49.7288],[9.4203,49.7066],[9.4194,49.6894],[9.3979,49.6707],[9.4195,49.6589],[9.4077,49.6467],[9.3836,49.6428],[9.3643,49.6555],[9.3369,49.6443],[9.3136,49.6537],[9.2783,49.6376],[9.2602,49.5944],[9.2137,49.5765],[9.1589,49.5796],[9.1205,49.5736],[9.103,49.5775],[9.0865,49.5438],[9.065,49.5296],[9.0408,49.4991],[9.0168,49.4977],[8.9876,49.5057],[8.9635,49.5015],[8.9319,49.4706],[8.9295,49.4498],[8.8546,49.3966],[8.8066,49.4192],[8.8305,49.4232],[8.8346,49.4504],[8.8272,49.4705],[8.8519,49.4836],[8.8765,49.4667],[8.8987,49.4838],[8.886,49.5058],[8.8182,49.5044],[8.7918,49.5143],[8.7246,49.5259],[8.7101,49.5322],[8.6843,49.5702],[8.6794,49.6257],[8.5939,49.6109],[8.6213,49.545],[8.5913,49.5213],[8.5669,49.5191],[8.5416,49.5286],[8.5263,49.548],[8.495,49.573],[8.4643,49.5895],[8.4224,49.5834],[8.4146,49.562],[8.4453,49.4895],[8.4629,49.4729],[8.4419,49.4559],[8.4598,49.4433],[8.488,49.444],[8.5084,49.4328],[8.4962,49.4021],[8.4654,49.3873],[8.4998,49.3715],[8.4798,49.346],[8.4526,49.3291],[8.4586,49.3129],[8.4872,49.3017],[8.4823,49.2865],[8.4608,49.2805],[8.4398,49.2623],[8.4007,49.2442],[8.3876,49.2311],[8.4053,49.2206],[8.385,49.1983],[8.3676,49.1642],[8.3727,49.152],[8.3546,49.0931],[8.3164,49.0605],[8.2974,49.0135],[8.2773,48.9899],[8.2326,48.9666],[8.2029,48.9598],[8.1352,48.8875],[8.1108,48.8421],[8.1038,48.8201],[8.0764,48.7947],[8.0416,48.7908],[8.0078,48.7592],[7.972,48.7581],[7.9633,48.7215],[7.89,48.6626],[7.8481,48.6469],[7.8048,48.5926],[7.8061,48.5164],[7.7919,48.5002],[7.7669,48.4871],[7.7617,48.4485],[7.7358,48.4039],[7.7319,48.3764],[7.7452,48.3351],[7.7316,48.3172],[7.7035,48.309],[7.6685,48.2255],[7.6441,48.2073],[7.6295,48.1837],[7.6018,48.1592],[7.6002,48.1388],[7.577,48.1191],[7.579,48.0998],[7.5692,48.08],[7.5739,48.0549],[7.5685,48.0352],[7.6134,47.9947],[7.6217,47.9765],[7.6096,47.9542],[7.5858,47.9349],[7.5798,47.8949],[7.5579,47.8805],[7.561,47.838],[7.5321,47.7878],[7.5307,47.7718],[7.5481,47.7395],[7.5425,47.7209],[7.5135,47.7018],[7.5211,47.6638],[7.5674,47.6317],[7.593,47.6008],[7.5892,47.5897],[7.6193,47.5769],[7.6458,47.5969],[7.6807,47.5827],[7.6783,47.569],[7.6481,47.5599],[7.6481,47.549],[7.6704,47.535],[7.6982,47.5333],[7.7961,47.5577],[7.8186,47.5866],[7.8499,47.5828],[7.8897,47.5881],[7.9109,47.571],[7.9171,47.5478],[7.9525,47.5545],[7.9992,47.5566],[8.0225,47.5505],[8.0589,47.5633],[8.0984,47.5618],[8.1042,47.5779],[8.1649,47.5941],[8.2061,47.621],[8.2385,47.6127],[8.2861,47.611],[8.2979,47.5891],[8.3284,47.5712],[8.3853,47.5669],[8.4001,47.577],[8.4287,47.5669],[8.4669,47.5842],[8.457,47.5973],[8.4831,47.6138],[8.5083,47.6175],[8.5156,47.6338],[8.5573,47.6246],[8.5825,47.5961],[8.6034,47.6111],[8.5957,47.6431],[8.6227,47.6572],[8.5961,47.6695],[8.5781,47.6616],[8.5605,47.6704],[8.5337,47.6599],[8.5229,47.6449],[8.4711,47.6423],[8.4056,47.6745],[8.4206,47.6839],[8.4044,47.6981],[8.4168,47.71],[8.454,47.7235],[8.4506,47.7401],[8.489,47.7733],[8.5232,47.7757],[8.5526,47.7846],[8.5755,47.8017],[8.6114,47.8019],[8.6194,47.7677],[8.6494,47.7704],[8.659,47.792],[8.6816,47.7835],[8.6886,47.7583],[8.7142,47.7654],[8.7398,47.7531],[8.7119,47.7309],[8.7332,47.7184],[8.728,47.6927],[8.7525,47.6905],[8.7896,47.6752],[8.7977,47.7029],[8.7694,47.7069],[8.7698,47.7181],[8.807,47.7345],[8.8336,47.7146],[8.8697,47.702],[8.8505,47.6845],[8.8942,47.6521],[8.9398,47.6622],[8.9983,47.6869],[8.9923,47.7071],[8.9431,47.7236],[8.9422,47.7337],[8.9863,47.7366],[9.0231,47.7284],[9.1016,47.7017],[9.1382,47.6642],[9.2178,47.6667],[9.2026,47.6911],[9.1796,47.7052],[9.178,47.7256],[9.1491,47.7487],[9.0697,47.7776],[9.0305,47.8065],[9.0616,47.8149],[9.1037,47.7932],[9.1393,47.769],[9.1517,47.7679],[9.2248,47.7403],[9.2441,47.7064],[9.2912,47.6822],[9.3572,47.6604],[9.3971,47.6683],[9.4333,47.6576],[9.5011,47.6463],[9.5366,47.5971],[9.5597,47.5848],[9.6021,47.5843]]]]},"properties":{"ags":"08","gen":"Baden-Württemberg","bez":"Land"}},
{"type":"Feature","geometry":{"type":"Polygon","coordinates":[[[11.9199,50.4244],[11.8854,50.4159],[11.8658,50.4007],[11.8235,50.3897],[11.7953,50.4182],[11.753,50.4159],[11.7262,50.4001],[11.7078,50.4039],[11.6839,50.3929],[11.6254,50.387],[11.5933,50.4027],[11.5721,50.3999],[11.5525,50.3826],[11.5207,50.3808],[11.5189,50.3957],[11.4785,50.4015],[11.4828,50.4294],[11.4513,50.431],[11.4206,50.4434],[11.4155,50.4678],[11.4409,50.5009],[11.4239,50.5161],[11.3466,50.5215],[11.3253,50.5103],[11.3189,50.489],[11.2664,50.4791],[11.2456,50.4696],[11.2632,50.4429],[11.2689,50.4195],[11.2581,50.4],[11.2707,50.3936],[11.2843,50.3603],[11.2662,50.352],[11.2565,50.3231],[11.2703,50.3067],[11.2556,50.2993],[11.2598,50.2749],[11.2473,50.2686],[11.1978,50.2919],[11.1899,50.2712],[11.1332,50.3002],[11.1348,50.3141],[11.1592,50.3304],[11.1136,50.3674],[11.0897,50.3659],[11.043,50.3447],[11.008,50.3652],[10.9825,50.3518],[10.95,50.3835],[10.9328,50.3924],[10.9114,50.3857],[10.8304,50.3926],[10.8043,50.3791],[10.7854,50.3852],[10.7494,50.358],[10.7153,50.3636],[10.7281,50.3381],[10.7154,50.3212],[10.7418,50.3159],[10.7707,50.2927],[10.7942,50.2954],[10.8039,50.2798],[10.8464,50.2751],[10.852,50.2516],[10.824,50.2375],[10.8006,50.2514],[10.7696,50.2408],[10.7265,50.2476],[10.7312,50.2127],[10.6958,50.2118],[10.659,50.2307],[10.612,50.2241],[10.6113,50.2491],[10.5935,50.2696],[10.6053,50.2935],[10.5923,50.3114],[10.6006,50.3337],[10.5618,50.3371],[10.5549,50.3547],[10.5342,50.366],[10.5071,50.3579],[10.4873,50.3753],[10.4585,50.3832],[10.4495,50.403],[10.4237,50.3925],[10.3877,50.3982],[10.4028,50.4262],[10.3707,50.4318],[10.3567,50.4552],[10.3362,50.4659],[10.3414,50.483],[10.3254,50.4926],[10.2916,50.4963],[10.2258,50.5187],[10.2216,50.5387],[10.2039,50.5547],[10.1391,50.543],[10.1262,50.5614],[10.0985,50.5522],[10.0413,50.5165],[10.0412,50.4952],[10.0183,50.4665],[9.9975,50.461],[9.9855,50.4434],[9.9578,50.4232],[9.8831,50.3989],[9.86,50.3975],[9.808,50.4124],[9.8026,50.424],[9.7513,50.4115],[9.7593,50.4024],[9.7433,50.3622],[9.7475,50.3135],[9.7034,50.2808],[9.6482,50.2652],[9.6358,50.2352],[9.6216,50.2231],[9.542,50.2243],[9.5027,50.2432],[9.4948,50.2267],[9.5156,50.1953],[9.4981,50.1755],[9.5282,50.1681],[9.5076,50.1456],[9.5193,50.114],[9.5125,50.0944],[9.4782,50.0948],[9.4131,50.0841],[9.3945,50.0975],[9.3736,50.131],[9.3076,50.1334],[9.2859,50.1417],[9.2604,50.1385],[9.236,50.1463],[9.1833,50.1379],[9.1917,50.1283],[9.1564,50.112],[9.1215,50.1261],[9.0893,50.1168],[9.0183,50.1116],[8.9974,50.0916],[8.9993,50.0694],[8.9759,50.0488],[9.0322,50.0363],[9.0355,50.0018],[9.0157,49.989],[9.0323,49.9247],[9.0372,49.8793],[9.0501,49.8663],[9.0361,49.8465],[9.064,49.8318],[9.0909,49.7907],[9.1289,49.7958],[9.1345,49.7833],[9.1134,49.7737],[9.1069,49.7587],[9.1491,49.7431],[9.1191,49.698],[9.0942,49.6959],[9.0889,49.669],[9.1034,49.6604],[9.1011,49.6411],[9.0659,49.6197],[9.103,49.5775],[9.1205,49.5736],[9.1589,49.5796],[9.2137,49.5765],[9.2602,49.5944],[9.2783,49.6376],[9.3136,49.6537],[9.3369,49.6443],[9.3643,49.6555],[9.3836,49.6428],[9.4077,49.6467],[9.4195,49.6589],[9.3979,49.6707],[9.4194,49.6894],[9.4203,49.7066],[9.4,49.7288],[9.3814,49.7252],[9.3825,49.7075],[9.3532,49.7074],[9.3417,49.7342],[9.3238,49.7457],[9.3132,49.7655],[9.3791,49.7769],[9.3915,49.7701],[9.4208,49.7888],[9.4463,49.773],[9.4688,49.7738],[9.4791,49.7869],[9.5015,49.7888],[9.5214,49.7612],[9.5576,49.7762],[9.6197,49.7832],[9.6487,49.7915],[9.6494,49.765],[9.638,49.7539],[9.6346,49.7187],[9.6254,49.7037],[9.6505,49.6881],[9.6761,49.6933],[9.6772,49.7162],[9.7097,49.7271],[9.7193,49.7019],[9.7361,49.6877],[9.753,49.7101],[9.7792,49.7225],[9.7965,49.7207],[9.8318,49.7038],[9.8371,49.6832],[9.8254,49.6733],[9.8301,49.6517],[9.8555,49.6415],[9.8704,49.6089],[9.8459,49.5979],[9.8485,49.5777],[9.8102,49.5573],[9.8522,49.5454],[9.8757,49.5786],[9.8988,49.5883],[9.9208,49.5633],[9.9271,49.5361],[9.9137,49.4933],[9.9266,49.4848],[10.0203,49.4866],[10.0282,49.504],[10.0572,49.5193],[10.04,49.529],[10.0837,49.5436],[10.0841,49.5118],[10.1213,49.511],[10.1012,49.4856],[10.1223,49.4639],[10.0947,49.4479],[10.1337,49.4371],[10.1612,49.3904],[10.1266,49.3879],[10.1048,49.3384],[10.1452,49.3165],[10.1317,49.3051],[10.1539,49.2847],[10.1474,49.2685],[10.1171,49.2642],[10.126,49.2273],[10.1605,49.1828],[10.2066,49.1591],[10.2184,49.1635],[10.248,49.1493],[10.2527,49.1299],[10.2303,49.119],[10.2228,49.0979],[10.2491,49.0916],[10.2455,49.0743],[10.2611,49.0627],[10.2517,49.0496],[10.2848,49.0366],[10.294,49.0428],[10.3454,49.0166],[10.3522,49.006],[10.3819,48.999],[10.4188,48.9686],[10.457,48.9171],[10.4241,48.9029],[10.4502,48.8931],[10.4528,48.8519],[10.447,48.8126],[10.4277,48.7916],[10.4171,48.7513],[10.4387,48.7375],[10.4601,48.7361],[10.4681,48.7166],[10.4834,48.7081],[10.4812,48.6821],[10.4492,48.6652],[10.4166,48.6638],[10.4269,48.6868],[10.3936,48.6892],[10.3894,48.6672],[10.351,48.6547],[10.3474,48.6791],[10.3175,48.6829],[10.2687,48.7035],[10.273,48.6859],[10.2624,48.6725],[10.2683,48.6466],[10.2965,48.6336],[10.3231,48.6091],[10.2971,48.6038],[10.3143,48.5556],[10.3008,48.5451],[10.2963,48.5169],[10.2647,48.5198],[10.242,48.5122],[10.2354,48.489],[10.1847,48.4764],[10.1718,48.4578],[10.1339,48.4549],[10.1174,48.4754],[10.0712,48.4584],[10.0327,48.4572],[10.0335,48.4268],[10.011,48.4017],[9.9899,48.3937],[9.9673,48.3744],[9.9995,48.3615],[9.9981,48.3475],[10.0431,48.3004],[10.0658,48.2818],[10.069,48.2538],[10.0607,48.2401],[10.0837,48.2096],[10.0857,48.1822],[10.108,48.1305],[10.1362,48.1114],[10.1432,48.0749],[10.1413,48.0467],[10.1271,48.0327],[10.1343,48.0176],[10.1196,48.0035],[10.115,47.9763],[10.0875,47.9684],[10.0858,47.9537],[10.1101,47.9372],[10.1017,47.8843],[10.1088,47.841],[10.1335,47.8136],[10.1157,47.8109],[10.0647,47.7859],[10.0825,47.7712],[10.1162,47.7614],[10.1167,47.7188],[10.1394,47.7033],[10.1293,47.6761],[10.0833,47.6555],[10.0586,47.6807],[10.0305,47.6745],[10.0019,47.682],[9.9707,47.6536],[9.9315,47.6539],[9.8864,47.6661],[9.8615,47.6776],[9.8342,47.6733],[9.8294,47.6586],[9.8002,47.6505],[9.7953,47.6357],[9.764,47.6177],[9.7095,47.6026],[9.6577,47.6117],[9.6141,47.5812],[9.6021,47.5843],[9.6578,47.5564],[9.7127,47.5507],[9.7293,47.5358],[9.756,47.5791],[9.7787,47.5952],[9.8024,47.5959],[9.8272,47.58],[9.8165,47.5474],[9.8757,47.5318],[9.902,47.5442],[9.9207,47.5297],[9.9411,47.5382],[9.9957,47.5029],[10.0018,47.4819],[10.0349,47.4886],[10.0718,47.4563],[10.0915,47.4591],[10.1054,47.4287],[10.0704,47.4079],[10.0829,47.3937],[10.0998,47.3547],[10.1193,47.3757],[10.1376,47.3679],[10.1695,47.3713],[10.1692,47.3858],[10.203,47.3827],[10.227,47.3888],[10.237,47.3735],[10.2042,47.3367],[10.2077,47.3039],[10.1787,47.2957],[10.174,47.2703],[10.2013,47.2769],[10.2423,47.2781],[10.2815,47.2875],[10.315,47.3065],[10.3465,47.3151],[10.3568,47.337],[10.3863,47.3562],[10.3974,47.3769],[10.431,47.3838],[10.4386,47.4136],[10.4711,47.4319],[10.4632,47.4828],[10.4402,47.4866],[10.4313,47.5037],[10.4545,47.5557],[10.4889,47.5404],[10.5734,47.5339],[10.5803,47.5556],[10.598,47.5697],[10.6354,47.559],[10.6878,47.5583],[10.6948,47.5446],[10.7505,47.5373],[10.7776,47.5139],[10.8131,47.5264],[10.8902,47.5372],[10.9048,47.5178],[10.8705,47.4994],[10.871,47.4819],[10.9101,47.4855],[10.9836,47.43],[10.9703,47.4],[11.0996,47.3943],[11.1243,47.4001],[11.1292,47.4128],[11.1982,47.4275],[11.2052,47.4338],[11.2534,47.4282],[11.2224,47.3973],[11.2729,47.3979],[11.29,47.4074],[11.2911,47.4272],[11.3136,47.4307],[11.3381,47.4497],[11.4155,47.447],[11.391,47.4823],[11.4417,47.5176],[11.4542,47.5087],[11.5125,47.5064],[11.5688,47.5136],[11.588,47.5254],[11.5858,47.5456],[11.606,47.5814],[11.6412,47.5936],[11.6581,47.5841],[11.6975,47.5886],[11.781,47.5912],[11.8473,47.5823],[11.8596,47.6012],[12.0128,47.6232],[12.0655,47.6167],[12.0824,47.6097],[12.1152,47.6114],[12.1398,47.6053],[12.179,47.6144],[12.2079,47.6148],[12.1988,47.6414],[12.1674,47.6825],[12.1839,47.7004],[12.2266,47.7183],[12.2496,47.7414],[12.2649,47.7325],[12.2412,47.6941],[12.2552,47.6793],[12.2775,47.6879],[12.338,47.6971],[12.3637,47.6838],[12.4292,47.6962],[12.4389,47.6761],[12.4651,47.6496],[12.512,47.6253],[12.5363,47.6365],[12.575,47.6323],[12.603,47.672],[12.6549,47.6721],[12.6661,47.6808],[12.7329,47.6795],[12.7785,47.6612],[12.759,47.6509],[12.7807,47.6328],[12.8107,47.6213],[12.7915,47.5975],[12.7843,47.5688],[12.8038,47.5499],[12.8476,47.546],[12.8572,47.527],[12.8804,47.5219],[12.9087,47.497],[12.9638,47.4752],[12.9856,47.4815],[13.0011,47.4639],[13.0269,47.4867],[13.0475,47.4921],[13.0463,47.524],[13.0317,47.5356],[13.0557,47.5573],[13.0436,47.5834],[13.0719,47.5884],[13.063,47.6021],[13.0956,47.628],[13.097,47.6407],[13.0772,47.6694],[13.0802,47.6864],[13.0439,47.7138],[13.0175,47.7229],[12.9871,47.7074],[12.9331,47.7095],[12.905,47.7236],[12.9448,47.7646],[12.9384,47.7831],[12.9641,47.7999],[13.0041,47.8464],[12.9667,47.9004],[12.9464,47.9218],[12.9387,47.9426],[12.9133,47.9566],[12.8848,47.9592],[12.8671,47.9753],[12.8573,48.0075],[12.8325,48.0291],[12.7682,48.0675],[12.7558,48.0805],[12.7491,48.1087],[12.7677,48.1289],[12.7876,48.1241],[12.7988,48.1462],[12.8273,48.1528],[12.8472,48.1669],[12.8655,48.1986],[12.8779,48.2031],[12.9491,48.2072],[12.9673,48.215],[13.0187,48.2566],[13.0897,48.2783],[13.1268,48.2782],[13.1719,48.2932],[13.2614,48.295],[13.3251,48.3209],[13.3679,48.3533],[13.4078,48.372],[13.4397,48.4317],[13.4269,48.4549],[13.4567,48.5143],[13.4385,48.5582],[13.4754,48.5561],[13.5306,48.5854],[13.564,48.5634],[13.5995,48.5694],[13.6258,48.554],[13.6533,48.5489],[13.6628,48.5349],[13.7274,48.513],[13.7679,48.5541],[13.8072,48.5847],[13.8073,48.6046],[13.8257,48.6185],[13.8142,48.6498],[13.8197,48.6713],[13.8015,48.7171],[13.8188,48.7315],[13.8226,48.7564],[13.8393,48.7707],[13.8039,48.7811],[13.8153,48.7969],[13.7923,48.8282],[13.7653,48.8379],[13.7437,48.8757],[13.7273,48.883],[13.6716,48.8801],[13.6552,48.8935],[13.638,48.9257],[13.5907,48.9528],[13.5855,48.9685],[13.5071,48.9691],[13.5083,48.9422],[13.4431,48.9658],[13.4029,48.9873],[13.4093,49.0031],[13.3923,49.0543],[13.3759,49.0584],[13.344,49.0889],[13.2892,49.1186],[13.2364,49.1136],[13.2057,49.1221],[13.1703,49.144],[13.1769,49.1642],[13.1293,49.1969],[13.11,49.2032],[13.1131,49.2192],[13.086,49.2294],[13.0808,49.2474],[13.0614,49.25],[13.0257,49.2789],[13.0291,49.3043],[13.0106,49.3053],[12.9726,49.3339],[12.95,49.3429],[12.8802,49.3505],[12.8768,49.3324],[12.8479,49.3443],[12.8025,49.3416],[12.7581,49.3752],[12.7576,49.3948],[12.7087,49.4247],[12.6559,49.4345],[12.658,49.4505],[12.6399,49.499],[12.6443,49.523],[12.6017,49.5325],[12.5742,49.5594],[12.5771,49.5863],[12.546,49.6213],[12.5282,49.6182],[12.5176,49.646],[12.5297,49.6674],[12.5216,49.6868],[12.4403,49.7058],[12.4257,49.7305],[12.4132,49.7323],[12.4032,49.7619],[12.467,49.7854],[12.4729,49.8336],[12.498,49.8376],[12.5219,49.8817],[12.5506,49.9026],[12.5477,49.9203],[12.4784,49.9357],[12.4705,49.949],[12.4939,49.9698],[12.4607,49.9949],[12.3675,50.0174],[12.3376,50.0399],[12.2991,50.0587],[12.2611,50.0647],[12.2666,50.0784],[12.2468,50.0921],[12.1996,50.1117],[12.1945,50.1377],[12.2112,50.1588],[12.2013,50.1888],[12.1834,50.1992],[12.1585,50.2265],[12.1089,50.2379],[12.0991,50.2624],[12.1387,50.2756],[12.1223,50.2916],[12.1262,50.3066],[12.1009,50.318],[12.0642,50.333],[12.0322,50.3301],[12.0276,50.3409],[11.9823,50.3499],[11.9807,50.3878],[11.9199,50.4244]],[[10.4545,47.5557],[10.4296,47.5771],[10.4564,47.5827],[10.4672,47.5678],[10.4545,47.5557]]]},"properties":{"ags":"09","gen":"Bayern","bez":"Freistaat"}},
{"type":"Feature","geometry":{"type":"Polygon","coordinates":[[[7.3688,49.1615],[7.3501,49.1628],[7.3057,49.201],[7.3029,49.2233],[7.289,49.2306],[7.3065,49.2561],[7.3391,49.2639],[7.3415,49.2815],[7.3653,49.2781],[7.3854,49.2941],[7.3928,49.3283],[7.4038,49.3461],[7.3934,49.3635],[7.3664,49.3634],[7.3558,49.3798],[7.3314,49.3789],[7.2968,49.3893],[7.2894,49.4124],[7.261,49.4236],[7.2464,49.4455],[7.2869,49.4577],[7.3048,49.4724],[7.2795,49.4837],[7.2857,49.5169],[7.2622,49.5747],[7.2244,49.5648],[7.1903,49.5771],[7.1555,49.6027],[7.1184,49.596],[7.093,49.6036],[7.0591,49.6305],[7.028,49.6394],[7.0124,49.6284],[6.9747,49.6339],[6.9277,49.6183],[6.8931,49.6167],[6.8572,49.6052],[6.8354,49.5829],[6.8134,49.592],[6.7782,49.5702],[6.748,49.5579],[6.7283,49.5589],[6.646,49.5391],[6.617,49.5355],[6.6101,49.5204],[6.5884,49.5175],[6.5687,49.5377],[6.5386,49.5395],[6.5229,49.5283],[6.4941,49.5306],[6.4767,49.5417],[6.4184,49.544],[6.3801,49.5511],[6.3569,49.5309],[6.3656,49.5092],[6.3671,49.4695],[6.4036,49.4659],[6.4204,49.4764],[6.4628,49.465],[6.5508,49.4254],[6.5373,49.4094],[6.5636,49.3881],[6.5873,49.3844],[6.5831,49.3684],[6.5956,49.3301],[6.5891,49.3221],[6.661,49.2825],[6.6958,49.2153],[6.7197,49.2211],[6.7314,49.206],[6.7112,49.1883],[6.7386,49.1637],[6.78,49.1684],[6.8341,49.1511],[6.8444,49.1731],[6.8618,49.1788],[6.838,49.2135],[6.8573,49.2223],[6.8933,49.2091],[6.9187,49.2227],[6.9596,49.2031],[6.9752,49.2095],[7.0108,49.188],[7.0277,49.1701],[7.0468,49.1365],[7.0442,49.1202],[7.0666,49.1142],[7.1041,49.1384],[7.1258,49.1419],[7.1504,49.1249],[7.1836,49.13],[7.1963,49.1217],[7.2451,49.1301],[7.2984,49.1173],[7.3298,49.1448],[7.3627,49.1431],[7.3688,49.1615]]]},"properties":{"ags":"10","gen":"Saarland","bez":"Land"}},
{"type":"Feature","geometry":{"type":"Polygon","coordinates":[[[13.4801,52.6746],[13.4508,52.6627],[13.4338,52.638],[13.3935,52.6462],[13.376,52.6293],[13.3365,52.6227],[13.2824,52.6413],[13.2643,52.6269],[13.2207,52.6282],[13.1922,52.59],[13.1643,52.5989],[13.1496,52.5833],[13.146,52.5601],[13.1306,52.5564],[13.1174,52.517],[13.143,52.5197],[13.1665,52.5101],[13.1178,52.479],[13.1092,52.4506],[13.1232,52.4394],[13.0906,52.4118],[13.1249,52.3969],[13.1956,52.4151],[13.2458,52.4208],[13.2548,52.4065],[13.2961,52.4165],[13.3119,52.3992],[13.343,52.4077],[13.421,52.3762],[13.4188,52.4099],[13.4623,52.4206],[13.4799,52.396],[13.5152,52.4014],[13.5357,52.389],[13.5928,52.3942],[13.6063,52.3796],[13.6279,52.3818],[13.6459,52.3652],[13.6921,52.368],[13.6912,52.3858],[13.7164,52.3995],[13.7532,52.4476],[13.7164,52.4622],[13.6826,52.4662],[13.6482,52.4788],[13.615,52.4808],[13.6347,52.5132],[13.6189,52.5429],[13.5854,52.5485],[13.5815,52.5709],[13.5471,52.5879],[13.5082,52.5922],[13.4985,52.6107],[13.5177,52.6296],[13.5128,52.6456],[13.4853,52.6591],[13.4801,52.6746]]]},"properties":{"ags":"11","gen":"Berlin","bez":"Land"}},
{"type":"Feature","geometry":{"type":"Polygon","coordinates":[[[14.4124,53.3296],[14.3992,53.3298],[14.3487,53.31],[14.3166,53.3123],[14.2935,53.2839],[14.2622,53.2766],[14.266,53.2596],[14.2111,53.2548],[14.1602,53.2678],[14.1248,53.2602],[14.0988,53.2617],[14.1141,53.2859],[14.184,53.3276],[14.2311,53.3681],[14.2425,53.3893],[14.2417,53.4221],[14.2247,53.4342],[14.204,53.4235],[14.171,53.4248],[14.1218,53.4417],[14.1054,53.4224],[14.0506,53.414],[14.0456,53.4294],[14.0012,53.435],[13.9465,53.4308],[13.9181,53.4218],[13.9029,53.432],[13.9182,53.456],[13.8756,53.4735],[13.8793,53.5041],[13.8239,53.5211],[13.7982,53.5464],[13.7764,53.5313],[13.7777,53.5137],[13.8271,53.4987],[13.7895,53.4752],[13.7154,53.4823],[13.6405,53.4472],[13.6252,53.4093],[13.5736,53.4081],[13.5501,53.3991],[13.5561,53.3867],[13.5434,53.364],[13.5169,53.3521],[13.5235,53.3201],[13.5073,53.318],[13.4856,53.292],[13.4315,53.2846],[13.4034,53.2492],[13.3865,53.2441],[13.3605,53.278],[13.3371,53.2734],[13.2978,53.2809],[13.2479,53.2568],[13.2512,53.2474],[13.2294,53.2166],[13.2027,53.2221],[13.1803,53.251],[13.1522,53.2511],[13.133,53.2373],[13.1033,53.2355],[13.1066,53.2152],[13.0844,53.2131],[13.0424,53.1965],[13.02,53.1757],[12.9704,53.1655],[12.9615,53.1777],[12.9751,53.1981],[12.9128,53.1952],[12.8779,53.18],[12.8496,53.1997],[12.8073,53.1973],[12.7644,53.1889],[12.7495,53.2063],[12.7581,53.2216],[12.7227,53.2217],[12.6712,53.2295],[12.6657,53.2533],[12.5999,53.2477],[12.5499,53.262],[12.5024,53.2622],[12.4453,53.2499],[12.428,53.275],[12.3985,53.2801],[12.3982,53.2947],[12.3532,53.3124],[12.3106,53.3236],[12.2718,53.3241],[12.2453,53.333],[12.2294,53.3582],[12.1911,53.354],[12.1686,53.3391],[12.1347,53.3486],[12.0821,53.3463],[12.0775,53.3694],[12.0558,53.3704],[12.0564,53.3497],[12.0166,53.3328],[12.0236,53.3041],[11.9971,53.2939],[11.9739,53.2992],[11.9542,53.2738],[11.8927,53.2728],[11.8596,53.2492],[11.8167,53.2542],[11.8289,53.2287],[11.7691,53.2275],[11.7405,53.2182],[11.7275,53.2317],[11.691,53.2418],[11.6614,53.2432],[11.604,53.2276],[11.5903,53.2165],[11.5616,53.2124],[11.5567,53.1942],[11.5686,53.1709],[11.5485,53.1308],[11.5346,53.1253],[11.4841,53.129],[11.4594,53.1403],[11.3956,53.14],[11.3939,53.1118],[11.3179,53.1199],[11.2657,53.122],[11.2696,53.1008],[11.3098,53.0779],[11.3313,53.0587],[11.3531,53.0547],[11.4026,53.0724],[11.4462,53.0785],[11.4669,53.0727],[11.5021,53.0501],[11.5519,53.0514],[11.5978,53.0359],[11.6394,53.0387],[11.6252,53.0187],[11.6318,53.0085],[11.6677,53.0097],[11.6827,52.9872],[11.7033,52.978],[11.7353,52.9891],[11.7533,52.9863],[11.7825,52.9627],[11.8442,52.9527],[11.8479,52.941],[11.8227,52.9205],[11.8422,52.9091],[11.8664,52.9097],[11.9001,52.8928],[11.9467,52.8885],[11.9796,52.8762],[12.0061,52.8875],[12.0773,52.8861],[12.0837,52.8764],[12.1202,52.8755],[12.1237,52.8538],[12.2019,52.8688],[12.2224,52.8653],[12.2437,52.8207],[12.2575,52.8049],[12.2439,52.7865],[12.206,52.7604],[12.2232,52.7397],[12.2042,52.7306],[12.2039,52.7134],[12.2394,52.6717],[12.2308,52.6298],[12.2035,52.6187],[12.172,52.6259],[12.1734,52.5823],[12.1447,52.5294],[12.1739,52.5387],[12.1861,52.5275],[12.1673,52.515],[12.1814,52.4997],[12.2027,52.4975],[12.2564,52.519],[12.2714,52.4875],[12.2987,52.4961],[12.3251,52.4712],[12.3056,52.4515],[12.2934,52.4235],[12.2745,52.4161],[12.3031,52.3983],[12.3056,52.3785],[12.2838,52.3643],[12.3081,52.3447],[12.2628,52.2951],[12.2511,52.2724],[12.2615,52.2461],[12.2838,52.2345],[12.2603,52.2165],[12.2168,52.1701],[12.2475,52.1376],[12.2632,52.1328],[12.2761,52.1046],[12.3144,52.0932],[12.329,52.0696],[12.3573,52.0483],[12.3896,52.0436],[12.4345,52.0172],[12.4608,52.0347],[12.4806,52.0333],[12.4988,52.0089],[12.5363,52.0029],[12.5394,51.9849],[12.603,51.9811],[12.6144,51.9917],[12.6447,51.9944],[12.6542,52.0123],[12.6727,52.0118],[12.7314,51.9884],[12.7766,51.9766],[12.8009,51.9622],[12.8442,51.9677],[12.8527,51.935],[12.8904,51.9284],[12.9357,51.9361],[12.9606,51.9349],[12.9861,51.9041],[13.0454,51.9005],[13.0392,51.8709],[13.0805,51.8675],[13.1323,51.8825],[13.1509,51.8596],[13.1274,51.8456],[13.163,51.802],[13.161,51.7767],[13.1475,51.7666],[13.154,51.7442],[13.1799,51.7307],[13.1544,51.7101],[13.1545,51.6867],[13.051,51.6477],[13.0938,51.6059],[13.121,51.6189],[13.1618,51.5921],[13.141,51.5712],[13.1608,51.559],[13.1856,51.5581],[13.2084,51.5103],[13.1891,51.4911],[13.1854,51.4682],[13.2038,51.4579],[13.1894,51.4343],[13.2173,51.3951],[13.2561,51.3921],[13.2634,51.4008],[13.3113,51.4223],[13.3583,51.434],[13.3766,51.4246],[13.3882,51.4478],[13.4633,51.4118],[13.5212,51.4021],[13.5249,51.3843],[13.5508,51.3793],[13.5876,51.3818],[13.5987,51.3689],[13.6828,51.3676],[13.7391,51.3612],[13.8088,51.3728],[13.8354,51.382],[13.8822,51.375],[13.91,51.379],[13.9562,51.3971],[13.9974,51.3852],[14.0446,51.4188],[14.043,51.4392],[14.0628,51.4455],[14.0387,51.4799],[14.0726,51.4721],[14.0887,51.4794],[14.1078,51.5218],[14.1352,51.5211],[14.1367,51.5433],[14.213,51.5398],[14.2289,51.5328],[14.2699,51.5324],[14.3242,51.5183],[14.3537,51.5208],[14.3872,51.5418],[14.4094,51.5372],[14.4413,51.5446],[14.4541,51.5564],[14.4999,51.5594],[14.5155,51.5542],[14.5475,51.5636],[14.5696,51.5812],[14.599,51.5717],[14.6099,51.5501],[14.6558,51.5543],[14.674,51.5506],[14.7055,51.5773],[14.7299,51.5818],[14.7649,51.607],[14.7541,51.6268],[14.7578,51.661],[14.7468,51.6762],[14.6681,51.7258],[14.6566,51.7405],[14.6629,51.7554],[14.6463,51.7943],[14.605,51.805],[14.591,51.8199],[14.5906,51.8387],[14.6073,51.8529],[14.652,51.8738],[14.6557,51.8847],[14.6929,51.901],[14.7072,51.9359],[14.7213,51.9518],[14.7063,51.9791],[14.714,52.0037],[14.7483,52.0318],[14.7452,52.0538],[14.7584,52.0674],[14.7413,52.0852],[14.6878,52.1073],[14.6791,52.1435],[14.7053,52.1735],[14.6863,52.1909],[14.7084,52.2117],[14.7164,52.2341],[14.6877,52.2571],[14.5926,52.2747],[14.5756,52.2888],[14.5849,52.3065],[14.5536,52.3499],[14.5521,52.3741],[14.5358,52.3923],[14.5442,52.426],[14.5778,52.441],[14.6101,52.4652],[14.6331,52.4901],[14.605,52.5276],[14.6185,52.5569],[14.6397,52.5716],[14.62,52.5823],[14.598,52.6096],[14.572,52.6218],[14.5053,52.6434],[14.4355,52.68],[14.424,52.6962],[14.3525,52.7507],[14.2804,52.7737],[14.2199,52.8157],[14.1301,52.8283],[14.1237,52.8454],[14.1587,52.8761],[14.1388,52.9518],[14.1437,52.9614],[14.2094,52.9882],[14.2356,52.9932],[14.2916,53.02],[14.3398,53.0477],[14.3662,53.0794],[14.3877,53.143],[14.3663,53.172],[14.3773,53.2017],[14.4059,53.2108],[14.4085,53.2232],[14.4496,53.2594],[14.4212,53.2761],[14.4068,53.3087],[14.4124,53.3296]],[[13.4801,52.6746],[13.4853,52.6591],[13.5128,52.6456],[13.5177,52.6296],[13.4985,52.6107],[13.5082,52.5922],[13.5471,52.5879],[13.5815,52.5709],[13.5854,52.5485],[13.6189,52.5429],[13.6347,52.5132],[13.615,52.4808],[13.6482,52.4788],[13.6826,52.4662],[13.7164,52.4622],[13.7532,52.4476],[13.7164,52.3995],[13.6912,52.3858],[13.6921,52.368],[13.6459,52.3652],[13.6279,52.3818],[13.6063,52.3796],[13.5928,52.3942],[13.5357,52.389],[13.5152,52.4014],[13.4799,52.396],[13.4623,52.4206],[13.4188,52.4099],[13.421,52.3762],[13.343,52.4077],[13.3119,52.3992],[13.2961,52.4165],[13.2548,52.4065],[13.2458,52.4208],[13.1956,52.4151],[13.1249,52.3969],[13.0906,52.4118],[13.1232,52.4394],[13.1092,52.4506],[13.1178,52.479],[13.1665,52.5101],[13.143,52.5197],[13.1174,52.517],[13.1306,52.5564],[13.146,52.5601],[13.1496,52.5833],[13.1643,52.5989],[13.1922,52.59],[13.2207,52.6282],[13.2643,52.6269],[13.2824,52.6413],[13.3365,52.6227],[13.376,52.6293],[13.3935,52.6462],[13.4338,52.638],[13.4508,52.6627],[13.4801,52.6746]]]},"properties":{"ags":"12","gen":"Brandenburg","bez":"Land"}},
{"type":"Feature","geometry":{"type":"MultiPolygon","coordinates":[[[[13.137,54.6048],[13.098,54.5906],[13.0984,54.5586],[13.0861,54.5373],[13.1169,54.538],[13.1098,54.5724],[13.137,54.6048]]],[[[13.1836,54.494],[13.1438,54.4783],[13.1204,54.4444],[13.1817,54.4561],[13.1868,54.4654],[13.2251,54.4717],[13.2178,54.4849],[13.1836,54.494]]],[[[11.473,54.0244],[11.404,54.0088],[11.3742,53.9923],[11.3779,53.9754],[11.4435,53.9606],[11.472,53.9792],[11.491,54.0008],[11.4922,54.0226],[11.473,54.0244]]],[[[13.7976,54.174],[13.7739,54.1724],[13.7514,54.159],[13.7555,54.1377],[13.813,54.0988],[13.7906,54.0487],[13.7729,54.0408],[13.7699,54.0192],[13.8013,54.0187],[13.8227,54.0371],[13.8575,54.0484],[13.8797,54.0403],[13.8532,54.0137],[13.8979,54.0118],[13.9238,54.0355],[13.9104,54.0488],[13.9227,54.0634],[13.9687,54.0599],[13.9964,54.0435],[14.0038,54.0199],[14.0349,54.0158],[14.0489,53.9806],[14.033,53.9413],[13.9952,53.9628],[13.964,53.9574],[13.965,53.9898],[13.9121,53.9913],[13.8977,53.9626],[13.9227,53.9506],[13.9382,53.9096],[13.9179,53.8879],[13.8917,53.8766],[13.8341,53.871],[13.8267,53.8497],[13.864,53.8426],[13.9135,53.8432],[13.9345,53.8682],[13.9537,53.8533],[13.9887,53.8483],[14.0197,53.8693],[14.1945,53.8721],[14.2154,53.8812],[14.2076,53.9159],[14.2261,53.9277],[14.1849,53.9466],[14.1422,53.9769],[14.05,54.0294],[14.0162,54.0539],[13.9637,54.0712],[13.9383,54.0747],[13.8837,54.0956],[13.8403,54.1247],[13.8122,54.1696],[13.7976,54.174]]],[[[13.4304,54.6843],[13.376,54.6838],[13.3372,54.6756],[13.2885,54.6739],[13.246,54.6582],[13.2203,54.6412],[13.2256,54.6114],[13.1957,54.5826],[13.1679,54.574],[13.1761,54.5611],[13.2373,54.599],[13.2275,54.6255],[13.2643,54.6433],[13.2883,54.634],[13.2804,54.6132],[13.2595,54.5937],[13.2433,54.5595],[13.2803,54.5651],[13.3324,54.5819],[13.3275,54.5932],[13.3711,54.6143],[13.3956,54.5729],[13.4248,54.5689],[13.4532,54.5531],[13.4871,54.5526],[13.5118,54.53],[13.5147,54.5153],[13.5033,54.4793],[13.5463,54.4759],[13.5413,54.4193],[13.4763,54.4246],[13.5131,54.4422],[13.4733,54.4518],[13.4838,54.4737],[13.469,54.4814],[13.4126,54.4938],[13.4146,54.5199],[13.3899,54.5354],[13.3715,54.5222],[13.3539,54.556],[13.3562,54.5811],[13.2998,54.555],[13.2894,54.5416],[13.2384,54.5543],[13.1744,54.5457],[13.1593,54.5364],[13.1624,54.5138],[13.1919,54.5055],[13.2314,54.5109],[13.2286,54.4854],[13.2527,54.4713],[13.1702,54.4535],[13.1509,54.4219],[13.2128,54.4291],[13.237,54.3872],[13.2379,54.3708],[13.1274,54.3707],[13.1137,54.3348],[13.1351,54.3174],[13.1417,54.2809],[13.18,54.2873],[13.1995,54.2699],[13.2398,54.2663],[13.2682,54.2537],[13.2874,54.2592],[13.3266,54.2549],[13.316,54.2413],[13.3816,54.2293],[13.4252,54.2398],[13.4174,54.2558],[13.3937,54.2651],[13.4191,54.3025],[13.4665,54.327],[13.4953,54.3366],[13.5715,54.3518],[13.6035,54.3442],[13.6764,54.3509],[13.6693,54.3352],[13.7046,54.3247],[13.6854,54.3102],[13.6457,54.2985],[13.6551,54.2885],[13.7032,54.2951],[13.7451,54.337],[13.7048,54.3806],[13.6721,54.4014],[13.623,54.3992],[13.6006,54.4124],[13.5709,54.4558],[13.5754,54.4777],[13.6789,54.5322],[13.6799,54.5623],[13.6354,54.5853],[13.5909,54.5846],[13.4604,54.5706],[13.4252,54.5778],[13.3933,54.5986],[13.3772,54.6349],[13.3911,54.6513],[13.4279,54.6596],[13.4304,54.6843]]],[[[14.4124,53.3296],[14.3903,53.3537],[14.3948,53.3757],[14.3733,53.409],[14.3713,53.4564],[14.358,53.4573],[14.3506,53.496],[14.3269,53.5038],[14.3159,53.5369],[14.3026,53.5534],[14.314,53.5652],[14.3169,53.6181],[14.2838,53.6344],[14.2837,53.6825],[14.2677,53.6975],[14.2224,53.6982],[14.2205,53.7098],[14.2512,53.7195],[14.2717,53.7393],[14.2599,53.7537],[14.2297,53.7612],[14.1833,53.7356],[14.1679,53.7417],[14.1244,53.7372],[14.084,53.7446],[14.0061,53.7669],[13.9688,53.7725],[13.9222,53.7977],[13.9006,53.8027],[13.8723,53.8312],[13.8489,53.8433],[13.8258,53.8438],[13.8099,53.8582],[13.8224,53.8735],[13.8472,53.878],[13.8638,53.8997],[13.9141,53.9219],[13.8943,53.9426],[13.8698,53.9524],[13.8351,53.9835],[13.7969,53.9953],[13.76,54.0159],[13.7596,54.0351],[13.7952,54.0773],[13.7981,54.1048],[13.7757,54.1096],[13.7625,54.1277],[13.6974,54.1489],[13.6958,54.1718],[13.6235,54.1397],[13.5751,54.1317],[13.5292,54.1311],[13.4777,54.1192],[13.5003,54.0897],[13.4685,54.0871],[13.4403,54.1109],[13.426,54.1395],[13.3815,54.1509],[13.4088,54.1668],[13.3811,54.177],[13.3433,54.1655],[13.3051,54.2061],[13.2874,54.2348],[13.2283,54.2397],[13.166,54.2783],[13.1328,54.269],[13.1048,54.2828],[13.1104,54.3075],[13.0875,54.3201],[13.076,54.3488],[13.0937,54.3644],[13.0729,54.3831],[13.0485,54.3801],[13.0249,54.3974],[13.0202,54.4124],[13.0343,54.4317],[13.0158,54.4394],[12.9861,54.425],[12.9236,54.413],[12.8997,54.4018],[12.8781,54.365],[12.8463,54.3511],[12.8175,54.351],[12.804,54.3704],[12.72,54.3714],[12.7075,54.4119],[12.6727,54.4083],[12.6671,54.3888],[12.6187,54.3721],[12.5946,54.3581],[12.5526,54.3596],[12.5297,54.3348],[12.4731,54.3296],[12.4789,54.3043],[12.4194,54.2902],[12.4078,54.2767],[12.4193,54.2462],[12.3636,54.2677],[12.3825,54.2781],[12.3583,54.3027],[12.3827,54.3101],[12.4007,54.3431],[12.4205,54.3401],[12.4191,54.3705],[12.4523,54.3811],[12.5011,54.3817],[12.5133,54.376],[12.5787,54.4047],[12.6015,54.4083],[12.6381,54.4255],[12.6531,54.4105],[12.6953,54.4323],[12.719,54.4321],[12.7405,54.4151],[12.7778,54.4178],[12.7996,54.4092],[12.8383,54.4225],[12.8749,54.4137],[12.927,54.428],[12.921,54.4451],[12.8539,54.4405],[12.6577,54.4434],[12.5515,54.4567],[12.5041,54.4781],[12.4676,54.4213],[12.4376,54.3926],[12.4059,54.3769],[12.3646,54.3245],[12.3363,54.2972],[12.3065,54.2822],[12.2165,54.2518],[12.1749,54.2291],[12.1231,54.1777],[12.1102,54.1593],[12.0868,54.1851],[12.0393,54.1764],[12.0114,54.1783],[11.8883,54.1511],[11.8484,54.1449],[11.7976,54.1468],[11.7614,54.1545],[11.68,54.1524],[11.6146,54.11],[11.5609,54.0965],[11.5327,54.0753],[11.5427,54.0586],[11.5875,54.0931],[11.6137,54.1025],[11.6265,54.0896],[11.6112,54.0685],[11.582,54.0629],[11.5871,54.047],[11.5626,54.0282],[11.5334,54.0254],[11.5089,54.0114],[11.4795,53.9655],[11.475,53.929],[11.4343,53.9101],[11.4036,53.9215],[11.4057,53.9357],[11.3675,53.9346],[11.3282,53.9581],[11.314,53.9417],[11.2699,53.9318],[11.2417,53.9492],[11.2459,53.9732],[11.2003,53.9923],[11.1816,54.0148],[11.1426,54.0096],[11.0896,54.0137],[11.0283,54.0033],[10.9795,53.9868],[10.9335,53.9649],[10.9037,53.9568],[10.9095,53.9463],[10.8945,53.9254],[10.9393,53.9193],[10.9488,53.9039],[10.9135,53.8977],[10.9118,53.9142],[10.8747,53.9145],[10.8195,53.8936],[10.8024,53.8771],[10.7728,53.8741],[10.7477,53.8515],[10.748,53.834],[10.7723,53.7972],[10.7583,53.7643],[10.7719,53.7494],[10.8042,53.74],[10.824,53.7113],[10.8529,53.7019],[10.8864,53.7057],[10.9232,53.6983],[10.9418,53.6845],[10.9386,53.6658],[10.9547,53.6586],[10.9296,53.6287],[10.9111,53.5726],[10.8626,53.5646],[10.8269,53.5762],[10.8315,53.5422],[10.8108,53.5162],[10.7864,53.5105],[10.7778,53.4952],[10.7207,53.4761],[10.7017,53.4783],[10.693,53.4551],[10.652,53.4615],[10.6349,53.456],[10.6177,53.4165],[10.615,53.383],[10.595,53.3639],[10.6307,53.3708],[10.7053,53.3687],[10.7381,53.3423],[10.7979,53.3148],[10.8286,53.3069],[10.8508,53.31],[10.9097,53.3377],[10.988,53.3334],[11.0087,53.2991],[11.0627,53.235],[11.0893,53.2146],[11.1367,53.1918],[11.1799,53.1867],[11.1953,53.1767],[11.1719,53.1566],[11.1846,53.1364],[11.2147,53.1444],[11.2457,53.1364],[11.2657,53.122],[11.3179,53.1199],[11.3939,53.1118],[11.3956,53.14],[11.4594,53.1403],[11.4841,53.129],[11.5346,53.1253],[11.5485,53.1308],[11.5686,53.1709],[11.5567,53.1942],[11.5616,53.2124],[11.5903,53.2165],[11.604,53.2276],[11.6614,53.2432],[11.691,53.2418],[11.7275,53.2317],[11.7405,53.2182],[11.7691,53.2275],[11.8289,53.2287],[11.8167,53.2542],[11.8596,53.2492],[11.8927,53.2728],[11.9542,53.2738],[11.9739,53.2992],[11.9971,53.2939],[12.0236,53.3041],[12.0166,53.3328],[12.0564,53.3497],[12.0558,53.3704],[12.0775,53.3694],[12.0821,53.3463],[12.1347,53.3486],[12.1686,53.3391],[12.1911,53.354],[12.2294,53.3582],[12.2453,53.333],[12.2718,53.3241],[12.3106,53.3236],[12.3532,53.3124],[12.3982,53.2947],[12.3985,53.2801],[12.428,53.275],[12.4453,53.2499],[12.5024,53.2622],[12.5499,53.262],[12.5999,53.2477],[12.6657,53.2533],[12.6712,53.2295],[12.7227,53.2217],[12.7581,53.2216],[12.7495,53.2063],[12.7644,53.1889],[12.8073,53.1973],[12.8496,53.1997],[12.8779,53.18],[12.9128,53.1952],[12.9751,53.1981],[12.9615,53.1777],[12.9704,53.1655],[13.02,53.1757],[13.0424,53.1965],[13.0844,53.2131],[13.1066,53.2152],[13.1033,53.2355],[13.133,53.2373],[13.1522,53.2511],[13.1803,53.251],[13.2027,53.2221],[13.2294,53.2166],[13.2512,53.2474],[13.2479,53.2568],[13.2978,53.2809],[13.3371,53.2734],[13.3605,53.278],[13.3865,53.2441],[13.4034,53.2492],[13.4315,53.2846],[13.4856,53.292],[13.5073,53.318],[13.5235,53.3201],[13.5169,53.3521],[13.5434,53.364],[13.5561,53.3867],[13.5501,53.3991],[13.5736,53.4081],[13.6252,53.4093],[13.6405,53.4472],[13.7154,53.4823],[13.7895,53.4752],[13.8271,53.4987],[13.7777,53.5137],[13.7764,53.5313],[13.7982,53.5464],[13.8239,53.5211],[13.8793,53.5041],[13.8756,53.4735],[13.9182,53.456],[13.9029,53.432],[13.9181,53.4218],[13.9465,53.4308],[14.0012,53.435],[14.0456,53.4294],[14.0506,53.414],[14.1054,53.4224],[14.1218,53.4417],[14.171,53.4248],[14.204,53.4235],[14.2247,53.4342],[14.2417,53.4221],[14.2425,53.3893],[14.2311,53.3681],[14.184,53.3276],[14.1141,53.2859],[14.0988,53.2617],[14.1248,53.2602],[14.1602,53.2678],[14.2111,53.2548],[14.266,53.2596],[14.2622,53.2766],[14.2935,53.2839],[14.3166,53.3123],[14.3487,53.31],[14.3992,53.3298],[14.4124,53.3296]]]]},"properties":{"ags":"13","gen":"Mecklenburg-Vorpommern","bez":"Land"}},
{"type":"Feature","geometry":{"type":"Polygon","coordinates":[[[13.051,51.6477],[13.0235,51.6373],[13.0116,51.6645],[12.9839,51.6691],[12.9722,51.6513],[12.9028,51.646],[12.8675,51.6565],[12.8487,51.681],[12.7925,51.6655],[12.7727,51.6475],[12.7174,51.6612],[12.6867,51.662],[12.6658,51.6316],[12.6371,51.6171],[12.6242,51.628],[12.5864,51.6224],[12.5446,51.6037],[12.507,51.6085],[12.4273,51.5993],[12.4254,51.5821],[12.3846,51.5865],[12.3194,51.5776],[12.2851,51.5614],[12.2329,51.5611],[12.2313,51.5473],[12.1928,51.5313],[12.2031,51.4851],[12.1757,51.4822],[12.1578,51.4523],[12.1572,51.4327],[12.1825,51.4324],[12.1747,51.3794],[12.1905,51.3539],[12.1943,51.3306],[12.1477,51.32],[12.1689,51.2938],[12.1737,51.2582],[12.1894,51.2576],[12.2012,51.2134],[12.1934,51.1853],[12.2131,51.1835],[12.1983,51.1607],[12.1962,51.1419],[12.2301,51.1362],[12.2214,51.1098],[12.2835,51.0919],[12.3316,51.1038],[12.3566,51.0943],[12.3753,51.0771],[12.3943,51.0838],[12.4496,51.0771],[12.4695,51.0642],[12.4964,51.0662],[12.5086,51.0531],[12.5029,51.0349],[12.5509,50.9983],[12.5741,50.9893],[12.6164,50.9853],[12.6314,50.9401],[12.6541,50.9191],[12.6397,50.9057],[12.5382,50.9007],[12.4878,50.8932],[12.4593,50.8804],[12.4375,50.8424],[12.3868,50.8506],[12.3491,50.8382],[12.3476,50.8236],[12.3069,50.8188],[12.3004,50.827],[12.2598,50.8115],[12.2532,50.7888],[12.2876,50.7896],[12.284,50.7735],[12.2639,50.7605],[12.228,50.7546],[12.235,50.7333],[12.2648,50.7375],[12.2534,50.7157],[12.2748,50.6861],[12.322,50.6814],[12.2989,50.6517],[12.2643,50.6434],[12.2655,50.6308],[12.2341,50.627],[12.2076,50.6366],[12.1882,50.6231],[12.1499,50.6288],[12.146,50.605],[12.1149,50.597],[12.1352,50.5821],[12.0781,50.5766],[12.0766,50.558],[12.0335,50.5512],[12.0177,50.569],[12.0361,50.5939],[12.0055,50.612],[12.0221,50.6255],[12.0104,50.6355],[11.982,50.6199],[11.9888,50.6107],[11.9236,50.5857],[11.9337,50.5685],[11.9205,50.5556],[11.8859,50.5521],[11.8715,50.5398],[11.8882,50.5167],[11.9185,50.517],[11.9642,50.487],[11.9465,50.4794],[11.9391,50.459],[11.895,50.4495],[11.9199,50.4244],[11.9807,50.3878],[11.9823,50.3499],[12.0276,50.3409],[12.0322,50.3301],[12.0642,50.333],[12.1009,50.318],[12.1845,50.3223],[12.1983,50.3074],[12.2015,50.2728],[12.2537,50.2711],[12.2653,50.2582],[12.2393,50.2472],[12.2939,50.2213],[12.2748,50.197],[12.2949,50.1747],[12.326,50.1726],[12.3382,50.1925],[12.326,50.2019],[12.3324,50.2385],[12.3501,50.2535],[12.3709,50.2853],[12.3943,50.2896],[12.4034,50.324],[12.4371,50.3276],[12.4418,50.3412],[12.4694,50.355],[12.5125,50.3962],[12.6029,50.4065],[12.6252,50.4163],[12.6423,50.4113],[12.7076,50.4078],[12.7346,50.4322],[12.8201,50.4598],[12.9346,50.4128],[12.9827,50.4194],[13.0166,50.4439],[13.0234,50.4883],[13.056,50.5013],[13.1015,50.5029],[13.1275,50.5176],[13.1455,50.5062],[13.1969,50.5046],[13.1947,50.5153],[13.228,50.5485],[13.2336,50.5791],[13.2788,50.593],[13.2909,50.575],[13.3229,50.5813],[13.3196,50.6016],[13.3667,50.6184],[13.3921,50.6463],[13.4296,50.6105],[13.4655,50.6023],[13.5023,50.634],[13.5242,50.6393],[13.514,50.6558],[13.5444,50.6774],[13.5275,50.699],[13.5599,50.7147],[13.6023,50.7101],[13.6412,50.7287],[13.6666,50.7319],[13.7079,50.7171],[13.7282,50.7337],[13.8073,50.7333],[13.8271,50.7242],[13.8969,50.7433],[13.8876,50.7711],[13.904,50.794],[13.9392,50.79],[13.9538,50.8073],[13.9908,50.8199],[14.0347,50.805],[14.0784,50.8124],[14.0906,50.8262],[14.1329,50.834],[14.1615,50.8475],[14.2233,50.8592],[14.2363,50.8826],[14.2675,50.8953],[14.3031,50.8839],[14.3865,50.8988],[14.3732,50.9382],[14.3117,50.9538],[14.3114,50.9847],[14.2822,50.9777],[14.2586,50.9875],[14.2922,51.0465],[14.3154,51.0557],[14.3405,51.0385],[14.362,51.0454],[14.3832,51.0285],[14.4218,51.0196],[14.4538,51.0359],[14.5253,51.0185],[14.5787,51.0003],[14.5992,50.9871],[14.5961,50.9628],[14.5607,50.9254],[14.5832,50.9143],[14.6502,50.9315],[14.6529,50.9055],[14.6362,50.8974],[14.6189,50.8577],[14.6601,50.8502],[14.6902,50.838],[14.7087,50.8409],[14.7687,50.8198],[14.8,50.8228],[14.8102,50.8508],[14.8252,50.869],[14.8221,50.8878],[14.8659,50.9166],[14.8931,50.9501],[14.9472,51.028],[14.949,51.0428],[14.979,51.0768],[14.9808,51.1088],[14.9949,51.1239],[14.9932,51.1625],[15.0367,51.2577],[15.0335,51.2939],[15.013,51.3008],[14.9778,51.3417],[14.9779,51.3756],[14.9647,51.3868],[14.9589,51.4109],[14.9738,51.4423],[14.947,51.4721],[14.9224,51.4823],[14.8528,51.4893],[14.796,51.5179],[14.7367,51.5256],[14.7287,51.5505],[14.712,51.561],[14.7299,51.5818],[14.7055,51.5773],[14.674,51.5506],[14.6558,51.5543],[14.6099,51.5501],[14.599,51.5717],[14.5696,51.5812],[14.5475,51.5636],[14.5155,51.5542],[14.4999,51.5594],[14.4541,51.5564],[14.4413,51.5446],[14.4094,51.5372],[14.3872,51.5418],[14.3537,51.5208],[14.3242,51.5183],[14.2699,51.5324],[14.2289,51.5328],[14.213,51.5398],[14.1367,51.5433],[14.1352,51.5211],[14.1078,51.5218],[14.0887,51.4794],[14.0726,51.4721],[14.0387,51.4799],[14.0628,51.4455],[14.043,51.4392],[14.0446,51.4188],[13.9974,51.3852],[13.9562,51.3971],[13.91,51.379],[13.8822,51.375],[13.8354,51.382],[13.8088,51.3728],[13.7391,51.3612],[13.6828,51.3676],[13.5987,51.3689],[13.5876,51.3818],[13.5508,51.3793],[13.5249,51.3843],[13.5212,51.4021],[13.4633,51.4118],[13.3882,51.4478],[13.3766,51.4246],[13.3583,51.434],[13.3113,51.4223],[13.2634,51.4008],[13.2561,51.3921],[13.2173,51.3951],[13.1894,51.4343],[13.2038,51.4579],[13.1854,51.4682],[13.1891,51.4911],[13.2084,51.5103],[13.1856,51.5581],[13.1608,51.559],[13.141,51.5712],[13.1618,51.5921],[13.121,51.6189],[13.0938,51.6059],[13.051,51.6477]]]},"properties":{"ags":"14","gen":"Sachsen","bez":"Freistaat"}},
{"type":"Feature","geometry":{"type":"Polygon","coordinates":[[[13.051,51.6477],[13.1545,51.6867],[13.1544,51.7101],[13.1799,51.7307],[13.154,51.7442],[13.1475,51.7666],[13.161,51.7767],[13.163,51.802],[13.1274,51.8456],[13.1509,51.8596],[13.1323,51.8825],[13.0805,51.8675],[13.0392,51.8709],[13.0454,51.9005],[12.9861,51.9041],[12.9606,51.9349],[12.9357,51.9361],[12.8904,51.9284],[12.8527,51.935],[12.8442,51.9677],[12.8009,51.9622],[12.7766,51.9766],[12.7314,51.9884],[12.6727,52.0118],[12.6542,52.0123],[12.6447,51.9944],[12.6144,51.9917],[12.603,51.9811],[12.5394,51.9849],[12.5363,52.0029],[12.4988,52.0089],[12.4806,52.0333],[12.4608,52.0347],[12.4345,52.0172],[12.3896,52.0436],[12.3573,52.0483],[12.329,52.0696],[12.3144,52.0932],[12.2761,52.1046],[12.2632,52.1328],[12.2475,52.1376],[12.2168,52.1701],[12.2603,52.2165],[12.2838,52.2345],[12.2615,52.2461],[12.2511,52.2724],[12.2628,52.2951],[12.3081,52.3447],[12.2838,52.3643],[12.3056,52.3785],[12.3031,52.3983],[12.2745,52.4161],[12.2934,52.4235],[12.3056,52.4515],[12.3251,52.4712],[12.2987,52.4961],[12.2714,52.4875],[12.2564,52.519],[12.2027,52.4975],[12.1814,52.4997],[12.1673,52.515],[12.1861,52.5275],[12.1739,52.5387],[12.1447,52.5294],[12.1734,52.5823],[12.172,52.6259],[12.2035,52.6187],[12.2308,52.6298],[12.2394,52.6717],[12.2039,52.7134],[12.2042,52.7306],[12.2232,52.7397],[12.206,52.7604],[12.2439,52.7865],[12.2575,52.8049],[12.2437,52.8207],[12.2224,52.8653],[12.2019,52.8688],[12.1237,52.8538],[12.1202,52.8755],[12.0837,52.8764],[12.0773,52.8861],[12.0061,52.8875],[11.9796,52.8762],[11.9467,52.8885],[11.9001,52.8928],[11.8664,52.9097],[11.8422,52.9091],[11.8227,52.9205],[11.8479,52.941],[11.8442,52.9527],[11.7825,52.9627],[11.7533,52.9863],[11.7353,52.9891],[11.7033,52.978],[11.6827,52.9872],[11.6677,53.0097],[11.6318,53.0085],[11.6252,53.0187],[11.6394,53.0387],[11.5978,53.0359],[11.5434,52.9995],[11.5064,52.9997],[11.4923,52.9597],[11.505,52.941],[11.4701,52.9389],[11.4261,52.9199],[11.4091,52.9051],[11.2954,52.8749],[11.2942,52.8871],[11.2411,52.879],[11.2206,52.8977],[11.1547,52.9019],[11.1131,52.8957],[11.0987,52.9129],[11.039,52.9134],[10.9926,52.9065],[10.9855,52.882],[10.9396,52.8533],[10.8689,52.8554],[10.8348,52.8475],[10.8006,52.8503],[10.7569,52.8198],[10.7552,52.7858],[10.7917,52.7482],[10.7965,52.7147],[10.8245,52.718],[10.8331,52.7009],[10.9151,52.6176],[10.9303,52.6114],[10.9642,52.6259],[10.9756,52.6068],[10.9397,52.5888],[10.9376,52.5674],[10.9594,52.5352],[11.0088,52.4967],[10.9748,52.5014],[10.9436,52.4923],[10.9337,52.461],[10.9605,52.4368],[11.0056,52.4089],[11.0189,52.3922],[11.065,52.3769],[11.0695,52.3579],[11.0021,52.3366],[11.0392,52.3017],[11.0138,52.2866],[11.0291,52.2701],[11.0522,52.2674],[11.0597,52.2426],[11.0786,52.2394],[11.0772,52.2187],[11.0449,52.2151],[11.0214,52.205],[11.0143,52.1819],[11.0537,52.1728],[11.0604,52.1537],[11.0463,52.1369],[11.0175,52.1283],[10.9803,52.1081],[10.9422,52.1031],[10.9707,52.0863],[10.9622,52.0576],[10.8765,52.059],[10.8287,52.0477],[10.701,52.0497],[10.6479,52.0417],[10.6555,52.0247],[10.639,52.0153],[10.5612,52.0041],[10.5868,51.9827],[10.6062,51.9773],[10.6475,51.9536],[10.6225,51.9475],[10.6133,51.9215],[10.6489,51.9072],[10.6486,51.8884],[10.6026,51.8545],[10.5742,51.8109],[10.5815,51.78],[10.593,51.7677],[10.6261,51.759],[10.642,51.7253],[10.6678,51.7105],[10.6631,51.6912],[10.6705,51.6669],[10.7014,51.6422],[10.7645,51.649],[10.8591,51.6328],[10.8866,51.6121],[10.8935,51.577],[10.9167,51.5471],[10.9399,51.5413],[10.9329,51.5215],[10.9704,51.4814],[10.9612,51.4631],[10.9723,51.4514],[10.9667,51.4324],[11.0053,51.4168],[11.0715,51.4286],[11.1529,51.4016],[11.2302,51.4057],[11.2743,51.4008],[11.3222,51.4096],[11.3405,51.3924],[11.3898,51.368],[11.3994,51.3448],[11.4731,51.3002],[11.4561,51.2772],[11.4126,51.2411],[11.3824,51.2444],[11.3648,51.2214],[11.391,51.2165],[11.4059,51.2027],[11.4283,51.2124],[11.4702,51.1904],[11.4719,51.1482],[11.451,51.1467],[11.4634,51.1128],[11.4852,51.1025],[11.5456,51.1025],[11.5717,51.1194],[11.62,51.1047],[11.6623,51.1111],[11.6963,51.0922],[11.7008,51.0694],[11.7212,51.071],[11.7533,51.057],[11.8039,51.0472],[11.8851,51.0566],[11.911,51.0412],[11.9166,51.0267],[11.9431,51.0324],[11.9801,51.0143],[11.9742,50.9903],[11.9978,50.9926],[12.021,50.9691],[12.0554,50.9686],[12.0875,50.9764],[12.1348,50.9608],[12.1574,50.963],[12.1825,50.9759],[12.2143,50.9431],[12.2387,50.9515],[12.2399,50.9757],[12.2657,50.992],[12.2917,51.0187],[12.2939,51.0313],[12.2622,51.0496],[12.2585,51.0661],[12.2835,51.0919],[12.2214,51.1098],[12.2301,51.1362],[12.1962,51.1419],[12.1983,51.1607],[12.2131,51.1835],[12.1934,51.1853],[12.2012,51.2134],[12.1894,51.2576],[12.1737,51.2582],[12.1689,51.2938],[12.1477,51.32],[12.1943,51.3306],[12.1905,51.3539],[12.1747,51.3794],[12.1825,51.4324],[12.1572,51.4327],[12.1578,51.4523],[12.1757,51.4822],[12.2031,51.4851],[12.1928,51.5313],[12.2313,51.5473],[12.2329,51.5611],[12.2851,51.5614],[12.3194,51.5776],[12.3846,51.5865],[12.4254,51.5821],[12.4273,51.5993],[12.507,51.6085],[12.5446,51.6037],[12.5864,51.6224],[12.6242,51.628],[12.6371,51.6171],[12.6658,51.6316],[12.6867,51.662],[12.7174,51.6612],[12.7727,51.6475],[12.7925,51.6655],[12.8487,51.681],[12.8675,51.6565],[12.9028,51.646],[12.9722,51.6513],[12.9839,51.6691],[13.0116,51.6645],[13.0235,51.6373],[13.051,51.6477]]]},"properties":{"ags":"15","gen":"Sachsen-Anhalt","bez":"Land"}},
{"type":"Feature","geometry":{"type":"Polygon","coordinates":[[[12.2835,51.0919],[12.2585,51.0661],[12.2622,51.0496],[12.2939,51.0313],[12.2917,51.0187],[12.2657,50.992],[12.2399,50.9757],[12.2387,50.9515],[12.2143,50.9431],[12.1825,50.9759],[12.1574,50.963],[12.1348,50.9608],[12.0875,50.9764],[12.0554,50.9686],[12.021,50.9691],[11.9978,50.9926],[11.9742,50.9903],[11.9801,51.0143],[11.9431,51.0324],[11.9166,51.0267],[11.911,51.0412],[11.8851,51.0566],[11.8039,51.0472],[11.7533,51.057],[11.7212,51.071],[11.7008,51.0694],[11.6963,51.0922],[11.6623,51.1111],[11.62,51.1047],[11.5717,51.1194],[11.5456,51.1025],[11.4852,51.1025],[11.4634,51.1128],[11.451,51.1467],[11.4719,51.1482],[11.4702,51.1904],[11.4283,51.2124],[11.4059,51.2027],[11.391,51.2165],[11.3648,51.2214],[11.3824,51.2444],[11.4126,51.2411],[11.4561,51.2772],[11.4731,51.3002],[11.3994,51.3448],[11.3898,51.368],[11.3405,51.3924],[11.3222,51.4096],[11.2743,51.4008],[11.2302,51.4057],[11.1529,51.4016],[11.0715,51.4286],[11.0053,51.4168],[10.9667,51.4324],[10.9723,51.4514],[10.9612,51.4631],[10.9704,51.4814],[10.9329,51.5215],[10.9399,51.5413],[10.9167,51.5471],[10.8935,51.577],[10.8866,51.6121],[10.8591,51.6328],[10.7645,51.649],[10.7014,51.6422],[10.6402,51.622],[10.6387,51.5841],[10.6663,51.5781],[10.6568,51.5583],[10.612,51.5792],[10.5603,51.5571],[10.5103,51.5562],[10.4957,51.5728],[10.4444,51.5897],[10.3773,51.5887],[10.3786,51.5627],[10.3668,51.5422],[10.3423,51.5195],[10.3012,51.5076],[10.2997,51.4939],[10.2447,51.4837],[10.2332,51.4708],[10.2057,51.4872],[10.1902,51.4807],[10.1743,51.4463],[10.1422,51.4446],[10.1169,51.4302],[10.0583,51.4353],[10.0423,51.4235],[10.0111,51.4208],[9.9874,51.3979],[9.9565,51.3911],[9.9283,51.3753],[9.9299,51.34],[9.9482,51.3163],[9.9853,51.2835],[10.0043,51.287],[10.03,51.2779],[10.0728,51.2404],[10.0671,51.2278],[10.1132,51.2152],[10.1419,51.2187],[10.1498,51.2062],[10.1775,51.2096],[10.2202,51.1857],[10.1852,51.1325],[10.1681,51.153],[10.1183,51.1396],[10.1755,51.1069],[10.1481,51.0837],[10.1465,51.0551],[10.1816,51.048],[10.2152,51.0264],[10.1908,50.9991],[10.1349,50.9956],[10.0571,51.0128],[10.0324,51.011],[10.0211,50.9939],[10.0243,50.9762],[10.0409,50.9675],[10.0536,50.9398],[9.991,50.9436],[10.0037,50.9216],[10.0342,50.9103],[10.0584,50.8902],[10.056,50.8798],[10.0243,50.8672],[10.0345,50.8427],[9.998,50.8265],[9.9768,50.8333],[9.9523,50.8214],[9.9441,50.7942],[9.9551,50.7856],[9.9289,50.7696],[9.9396,50.7559],[9.9352,50.7241],[9.9118,50.7087],[9.9203,50.6978],[9.8796,50.6665],[9.877,50.6417],[9.9061,50.6404],[9.9269,50.6298],[9.9607,50.6295],[9.9689,50.6413],[9.9497,50.6559],[10.002,50.6766],[10.0489,50.6739],[10.083,50.6337],[10.0372,50.6129],[10.0474,50.6008],[10.0454,50.5735],[10.0618,50.5567],[10.0397,50.5326],[10.0413,50.5165],[10.0985,50.5522],[10.1262,50.5614],[10.1391,50.543],[10.2039,50.5547],[10.2216,50.5387],[10.2258,50.5187],[10.2916,50.4963],[10.3254,50.4926],[10.3414,50.483],[10.3362,50.4659],[10.3567,50.4552],[10.3707,50.4318],[10.4028,50.4262],[10.3877,50.3982],[10.4237,50.3925],[10.4495,50.403],[10.4585,50.3832],[10.4873,50.3753],[10.5071,50.3579],[10.5342,50.366],[10.5549,50.3547],[10.5618,50.3371],[10.6006,50.3337],[10.5923,50.3114],[10.6053,50.2935],[10.5935,50.2696],[10.6113,50.2491],[10.612,50.2241],[10.659,50.2307],[10.6958,50.2118],[10.7312,50.2127],[10.7265,50.2476],[10.7696,50.2408],[10.8006,50.2514],[10.824,50.2375],[10.852,50.2516],[10.8464,50.2751],[10.8039,50.2798],[10.7942,50.2954],[10.7707,50.2927],[10.7418,50.3159],[10.7154,50.3212],[10.7281,50.3381],[10.7153,50.3636],[10.7494,50.358],[10.7854,50.3852],[10.8043,50.3791],[10.8304,50.3926],[10.9114,50.3857],[10.9328,50.3924],[10.95,50.3835],[10.9825,50.3518],[11.008,50.3652],[11.043,50.3447],[11.0897,50.3659],[11.1136,50.3674],[11.1592,50.3304],[11.1348,50.3141],[11.1332,50.3002],[11.1899,50.2712],[11.1978,50.2919],[11.2473,50.2686],[11.2598,50.2749],[11.2556,50.2993],[11.2703,50.3067],[11.2565,50.3231],[11.2662,50.352],[11.2843,50.3603],[11.2707,50.3936],[11.2581,50.4],[11.2689,50.4195],[11.2632,50.4429],[11.2456,50.4696],[11.2664,50.4791],[11.3189,50.489],[11.3253,50.5103],[11.3466,50.5215],[11.4239,50.5161],[11.4409,50.5009],[11.4155,50.4678],[11.4206,50.4434],[11.4513,50.431],[11.4828,50.4294],[11.4785,50.4015],[11.5189,50.3957],[11.5207,50.3808],[11.5525,50.3826],[11.5721,50.3999],[11.5933,50.4027],[11.6254,50.387],[11.6839,50.3929],[11.7078,50.4039],[11.7262,50.4001],[11.753,50.4159],[11.7953,50.4182],[11.8235,50.3897],[11.8658,50.4007],[11.8854,50.4159],[11.9199,50.4244],[11.895,50.4495],[11.9391,50.459],[11.9465,50.4794],[11.9642,50.487],[11.9185,50.517],[11.8882,50.5167],[11.8715,50.5398],[11.8859,50.5521],[11.9205,50.5556],[11.9337,50.5685],[11.9236,50.5857],[11.9888,50.6107],[11.982,50.6199],[12.0104,50.6355],[12.0221,50.6255],[12.0055,50.612],[12.0361,50.5939],[12.0177,50.569],[12.0335,50.5512],[12.0766,50.558],[12.0781,50.5766],[12.1352,50.5821],[12.1149,50.597],[12.146,50.605],[12.1499,50.6288],[12.1882,50.6231],[12.2076,50.6366],[12.2341,50.627],[12.2655,50.6308],[12.2643,50.6434],[12.2989,50.6517],[12.322,50.6814],[12.2748,50.6861],[12.2534,50.7157],[12.2648,50.7375],[12.235,50.7333],[12.228,50.7546],[12.2639,50.7605],[12.284,50.7735],[12.2876,50.7896],[12.2532,50.7888],[12.2598,50.8115],[12.3004,50.827],[12.3069,50.8188],[12.3476,50.8236],[12.3491,50.8382],[12.3868,50.8506],[12.4375,50.8424],[12.4593,50.8804],[12.4878,50.8932],[12.5382,50.9007],[12.6397,50.9057],[12.6541,50.9191],[12.6314,50.9401],[12.6164,50.9853],[12.5741,50.9893],[12.5509,50.9983],[12.5029,51.0349],[12.5086,51.0531],[12.4964,51.0662],[12.4695,51.0642],[12.4496,51.0771],[12.3943,51.0838],[12.3753,51.0771],[12.3566,51.0943],[12.3316,51.1038],[12.2835,51.0919]]]},"properties":{"ags":"16","gen":"Thüringen","bez":"Freistaat"}}
]}